<?xml version="1.0" encoding="UTF-8"?>
<kml xmlns="http://www.opengis.net/kml/2.2"  xmlns:gx="http://www.google.com/kml/ext/2.2" xmlns:kml="http://www.opengis.net/kml/2.2"    
     xmlns:atom="http://www.w3.org/2005/Atom">
    <Document>
        <name>Kayageçit Ultra </name>
        
                        <atom:author>             
                <atom:name>
   
   
  </atom:name>         
            </atom:author> 
        
                            <atom:link href="https://www.strava.com/routes/3441655324125052582"/>
            
                        
        <description><![CDATA[<br/><p> </p><p><br/>Converted using <b><a href='http://gpx2kml.com' title='Go to gpx2kml.com'>gpx2kml.com</a></b></p><br/>]]></description>
        <visibility>1</visibility>
        <open>1</open>
        
                <Style id="red">
            <LineStyle>
            <color>C81400FF</color>
            <width>4</width>
            </LineStyle>
        </Style>
        <Style id="route_red">
            <LineStyle>
            <color>961400FF</color>
            <width>4</width>
            </LineStyle>
        </Style>
                <Style id="green">
            <LineStyle>
            <color>C878FF00</color>
            <width>4</width>
            </LineStyle>
        </Style>
        <Style id="route_green">
            <LineStyle>
            <color>9678FF00</color>
            <width>4</width>
            </LineStyle>
        </Style>
                <Style id="blue">
            <LineStyle>
            <color>C8FF7800</color>
            <width>4</width>
            </LineStyle>
        </Style>
        <Style id="route_blue">
            <LineStyle>
            <color>96FF7800</color>
            <width>4</width>
            </LineStyle>
        </Style>
                <Style id="cyan">
            <LineStyle>
            <color>C8F0FF14</color>
            <width>4</width>
            </LineStyle>
        </Style>
        <Style id="route_cyan">
            <LineStyle>
            <color>96F0FF14</color>
            <width>4</width>
            </LineStyle>
        </Style>
                <Style id="orange">
            <LineStyle>
            <color>C81478FF</color>
            <width>4</width>
            </LineStyle>
        </Style>
        <Style id="route_orange">
            <LineStyle>
            <color>961478FF</color>
            <width>4</width>
            </LineStyle>
        </Style>
                <Style id="dark_green">
            <LineStyle>
            <color>C8008C14</color>
            <width>4</width>
            </LineStyle>
        </Style>
        <Style id="route_dark_green">
            <LineStyle>
            <color>96008C14</color>
            <width>4</width>
            </LineStyle>
        </Style>
                <Style id="purple">
            <LineStyle>
            <color>C8FF7878</color>
            <width>4</width>
            </LineStyle>
        </Style>
        <Style id="route_purple">
            <LineStyle>
            <color>96FF7878</color>
            <width>4</width>
            </LineStyle>
        </Style>
                <Style id="pink">
            <LineStyle>
            <color>C8A078F0</color>
            <width>4</width>
            </LineStyle>
        </Style>
        <Style id="route_pink">
            <LineStyle>
            <color>96A078F0</color>
            <width>4</width>
            </LineStyle>
        </Style>
                <Style id="brown">
            <LineStyle>
            <color>C8143C96</color>
            <width>4</width>
            </LineStyle>
        </Style>
        <Style id="route_brown">
            <LineStyle>
            <color>96143C96</color>
            <width>4</width>
            </LineStyle>
        </Style>
                <Style id="dark_blue">
            <LineStyle>
            <color>C8F01414</color>
            <width>4</width>
            </LineStyle>
        </Style>
        <Style id="route_dark_blue">
            <LineStyle>
            <color>96F01414</color>
            <width>4</width>
            </LineStyle>
        </Style>
        
                
                
        <Folder>
            <name>Tracks</name>
            <description>A list of tracks</description>
            <visibility>1</visibility>            
            <open>0</open>
                                                            
                <Placemark>
                    <visibility>0</visibility>            
                    <open>0</open> 
                    <styleUrl>#red</styleUrl>
                    <name>Kayageçit Ultra </name>
                    <description>Track no. 1</description>
                    <LineString>
                        <extrude>true</extrude>
                        <tessellate>true</tessellate>
                        <altitudeMode>clampToGround</altitudeMode> 
                        <coordinates>
                            34.74226,37.14752,419.76 34.74183,37.14786,428.72 34.74174,37.147980000000004,430.05 34.74175,37.14804,431.26000000000005 34.74203,37.148270000000004,435.1 34.74213,37.14855,437.22 34.742290000000004,37.14866,438.85 34.74242,37.14889,439.39000000000004 34.74246,37.14913,439.96000000000004 34.742670000000004,37.14929,440.34 34.742720000000006,37.149350000000005,440.34 34.7428,37.14954,441.65000000000003 34.743030000000005,37.14999,446.93000000000006 34.743480000000005,37.150490000000005,452.48 34.743610000000004,37.15072,454.28000000000003 34.74374,37.151120000000006,454.28000000000003 34.74373,37.15126,454.28000000000003 34.74367,37.151430000000005,454.28000000000003 34.743550000000006,37.151630000000004,474.71000000000004 34.74353,37.151770000000006,474.71000000000004 34.74371,37.15214,474.71000000000004 34.744330000000005,37.151990000000005,474.84000000000003 34.744620000000005,37.15194,473.6 34.74497,37.15176,472.76 34.745250000000006,37.151500000000006,468.93 34.745490000000004,37.15115,464.45000000000005 34.745670000000004,37.15106,462.96000000000004 34.74584,37.150890000000004,461.53000000000003 34.74602,37.15066,459.82000000000005 34.74607,37.15052,458.47 34.74627,37.15032,456.31000000000006 34.74647,37.150020000000005,453.69000000000005 34.74656,37.15006,455.49000000000007 34.746660000000006,37.15007000000001,456.65000000000003 34.74678,37.150020000000005,458.0 34.746900000000004,37.14974,459.58000000000004 34.74703,37.14963,460.76000000000005 34.747530000000005,37.149330000000006,465.70000000000005 34.74768,37.14932,468.29 34.747840000000004,37.14941,469.0 34.74795,37.14952,468.04 34.748050000000006,37.149730000000005,464.59000000000003 34.74833,37.149640000000005,461.41 34.74846,37.149820000000005,461.87000000000006 34.748720000000006,37.14996,459.92 34.74882,37.15003,458.21000000000004 34.74918,37.150650000000006,459.8 34.749480000000005,37.1509,457.46000000000004 34.74963,37.15106,457.23 34.74996,37.15131,453.54 34.75001,37.15142,457.02000000000004 34.750280000000004,37.1516,458.35 34.7505,37.15166,456.90000000000003 34.750750000000004,37.151680000000006,455.34000000000003 34.75083,37.1516,448.96000000000004 34.75113,37.151500000000006,437.79 34.751450000000006,37.15146,435.2300000000001 34.75166,37.15155,438.39000000000004 34.75236,37.15213,451.76000000000005 34.752720000000004,37.152550000000005,458.61 34.75321,37.152620000000006,460.66 34.75352,37.152890000000006,461.49 34.753730000000004,37.15352,463.01000000000005 34.75418499776214,37.153880000813075,459.32000000000005 34.75464,37.15424,455.38000000000005 34.75477,37.15449,451.33000000000004 34.75484,37.154880000000006,448.33000000000004 34.75486,37.155350000000006,450.83000000000004 34.75491,37.155660000000005,459.59000000000003 34.75558,37.156310000000005,478.91 34.7558,37.15655,483.80000000000007 34.756040000000006,37.15677,482.1 34.75643,37.1572,474.33000000000004 34.756800000000005,37.157410000000006,464.9200000000001 34.757070000000006,37.157540000000004,460.58000000000004 34.757310000000004,37.157700000000006,460.78000000000003 34.75746,37.15796,468.58000000000004 34.75755,37.15805,470.93 34.757760000000005,37.15798,467.5 34.757960000000004,37.15773,460.3 34.758100000000006,37.157610000000005,458.76000000000005 34.7582,37.15755,459.25000000000006 34.7582,37.15746,458.94 34.758100000000006,37.15742,458.23 34.75784,37.157410000000006,456.43000000000006 34.757690000000004,37.157320000000006,457.39 34.75755,37.15726,458.76000000000005 34.75721,37.15724,460.06 34.75755,37.15691,471.46000000000004 34.757760000000005,37.15693,469.87000000000006 34.758050000000004,37.15692,472.43 34.758190000000006,37.15688,474.91 34.75837,37.156870000000005,476.53000000000003 34.75847,37.156940000000006,474.98 34.75853,37.157090000000004,470.51000000000005 34.758590000000005,37.15719,468.11 34.75929,37.15739000000001,483.46000000000004 34.75954,37.157500000000006,489.03000000000003 34.75936,37.15728,485.50000000000006 34.758990000000004,37.157030000000006,481.08000000000004 34.759060000000005,37.15681,490.59000000000003 34.75893,37.156580000000005,497.86 34.75869,37.1565,497.16 34.758520000000004,37.15641,499.41 34.758320000000005,37.15635,499.70000000000005 34.75817,37.15626,504.25000000000006 34.758280000000006,37.15597,515.6 34.75815,37.15589000000001,518.75 34.757920000000006,37.155860000000004,519.6700000000001 34.75777,37.15589000000001,518.29 34.75808,37.15558,529.1600000000001 34.75826,37.155550000000005,531.1700000000001 34.758610000000004,37.15556,531.99 34.75874,37.15561,531.85 34.75864,37.15588,521.2800000000001 34.759040000000006,37.15601,522.51 34.759440000000005,37.156040000000004,530.2600000000001 34.759660000000004,37.1563,527.6 34.76001,37.15652,527.6500000000001 34.760270000000006,37.15681,524.66 34.760630000000006,37.15664,540.01 34.76113,37.1565,552.35 34.761480000000006,37.15655,554.0200000000001 34.76176,37.1567,556.97 34.76127,37.15635,555.6300000000001 34.76071,37.15623,553.61 34.760250000000006,37.15619,546.35 34.760740000000006,37.156090000000006,556.9300000000001 34.761660000000006,37.155930000000005,565.85 34.76214,37.15597,569.61 34.7625,37.15596,577.33 34.762890000000006,37.15603,584.94 34.763020000000004,37.155950000000004,590.0200000000001 34.76314,37.156040000000004,591.1899999999999 34.76353,37.1561,599.62 34.7637,37.15616,603.48 34.763920000000006,37.15644,608.48 34.764050000000005,37.156980000000004,613.45 34.76406,37.15719,616.08 34.76399,37.157300000000006,616.87 34.763830000000006,37.15735,615.96 34.763630000000006,37.15731,612.53 34.76346,37.15731,609.85 34.76328,37.1574,608.35 34.763180000000006,37.157500000000006,607.97 34.76301,37.15769,606.82 34.76283,37.15773,602.11 34.762690000000006,37.15782,598.37 34.76261,37.157990000000005,595.07 34.762660000000004,37.158120000000004,595.6600000000001 34.762800000000006,37.15822,598.87 34.76285,37.15836,599.84 34.76297,37.158860000000004,598.71 34.76306,37.15905,600.71 34.76315,37.159150000000004,603.31 34.76348,37.15925,610.75 34.76368,37.15943,617.33 34.763920000000006,37.15973,626.57 34.76418,37.1602,637.1 34.76402,37.160230000000006,636.7400000000001 34.763650000000005,37.160250000000005,636.41 34.76359,37.160450000000004,642.87 34.76279,37.16031,620.7 34.76278,37.16031,620.7 34.763504998910854,37.16043500222705,623.1600000000001 34.764230000000005,37.160560000000004,624.5 34.76451,37.16057,625.77 34.76476,37.160520000000005,627.3700000000001 34.764950000000006,37.160450000000004,629.19 34.76503,37.160340000000005,630.38 34.76503,37.16024,630.82 34.76496,37.16013,630.75 34.76465,37.159960000000005,629.23 34.76449,37.15984,628.7600000000001 34.764300000000006,37.15948,629.51 34.764300000000006,37.159310000000005,632.26 34.76435,37.15916,634.27 34.764610000000005,37.158950000000004,636.2500000000001 34.76476,37.159110000000005,646.5600000000001 34.764770000000006,37.159220000000005,645.78 34.76503,37.15926,653.34 34.765080000000005,37.15936,654.33 34.76505,37.15946,652.7400000000001 34.76514,37.15959,654.8600000000001 34.76545,37.15968,661.6899999999999 34.76559,37.159740000000006,664.3500000000001 34.76594,37.15973,672.8000000000001 34.766470000000005,37.160030000000006,679.6500000000001 34.76671,37.16011,683.76 34.76729,37.1608,684.7500000000001 34.767700000000005,37.16127,690.5400000000001 34.76813,37.16158,701.5100000000001 34.76829,37.16181,708.4800000000001 34.76838,37.16189,711.77 34.768620000000006,37.16228,722.0500000000001 34.76861,37.16239,724.0200000000001 34.768260000000005,37.162530000000004,723.1200000000001 34.76771,37.16264,719.9000000000001 34.7676,37.1627,718.87 34.76769,37.162760000000006,718.87 34.768040000000006,37.162910000000004,724.38 34.76843,37.163000000000004,729.2400000000001 34.768660000000004,37.16315,732.44 34.76899,37.16331,737.62 34.76924,37.16349,741.0000000000001 34.76959,37.16368000000001,746.8100000000001 34.76979,37.163850000000004,750.3900000000001 34.76935,37.164170000000006,748.19 34.769200000000005,37.16433,748.19 34.769130000000004,37.16447,748.19 34.769040000000004,37.16478,748.19 34.768510000000006,37.16557,748.19 34.76843,37.16574,739.6100000000001 34.768420000000006,37.165820000000004,739.6100000000001 34.76854,37.166090000000004,739.6100000000001 34.76854,37.16617,739.6100000000001 34.768460000000005,37.16635,739.6100000000001 34.768440000000005,37.166470000000004,739.6100000000001 34.76863,37.167060000000006,739.6100000000001 34.76878,37.167390000000005,739.6100000000001 34.768840000000004,37.16756,739.6100000000001 34.768930000000005,37.16818,743.3700000000001 34.76894,37.16852,745.97 34.768890000000006,37.16883,748.1000000000001 34.76877,37.16921,749.35 34.768660000000004,37.169410000000006,748.84 34.768330000000006,37.1698,746.71 34.76812,37.17016,747.24 34.767900001152086,37.170595000429515,749.84 34.767680000000006,37.17103,750.84 34.76747500139248,37.17154000015456,751.1000000000001 34.76727,37.172050000000006,756.34 34.767250000000004,37.172430000000006,761.1600000000001 34.76727,37.17269,762.96 34.76733,37.173010000000005,763.8800000000001 34.767430000000004,37.173280000000005,764.41 34.767430000000004,37.173390000000005,765.6200000000001 34.767360000000004,37.173500000000004,766.8100000000001 34.76711,37.173750000000005,770.47 34.76709,37.173860000000005,770.8900000000001 34.767120000000006,37.17394,770.5600000000001 34.76728,37.174170000000004,768.7400000000001 34.76737,37.17443,766.6200000000001 34.76769,37.17494000000001,762.9800000000001 34.767680000000006,37.17504,761.83 34.767900000000004,37.17531,761.4000000000001 34.767680000000006,37.17504,761.83 34.766780000000004,37.174600000000005,749.5400000000001 34.76621,37.174240000000005,742.32 34.76596,37.174,739.69 34.765640000000005,37.17374,736.57 34.76549,37.17358,734.83 34.765420000000006,37.17354,734.36 34.765370000000004,37.17353,733.83 34.765010000000004,37.1739,728.1 34.764970000000005,37.17399,727.23 34.764900000000004,37.174510000000005,727.32 34.76476,37.17463,726.72 34.764790000000005,37.17481,724.0600000000001 34.76484,37.17495,721.1800000000001 34.76473,37.17512,718.6800000000001 34.764300000000006,37.17524,714.5400000000001 34.764100000000006,37.17535,710.8800000000001 34.76404,37.17577,700.19 34.76444,37.17586,698.5300000000001 34.764990000000004,37.176120000000004,696.91 34.76516,37.17649,687.33 34.76512,37.177240000000005,669.66 34.765,37.17765,662.7 34.76431000343557,37.17804000207197,648.08 34.76362,37.178430000000006,648.08 34.76288,37.17817,641.4300000000001 34.76234,37.17817,625.2800000000001 34.762100000000004,37.178430000000006,625.2800000000001 34.76216,37.17895,622.87 34.76191,37.17922,620.11 34.761610000000005,37.17935000000001,617.45 34.76138,37.17931,615.53 34.761160000000004,37.17918,615.53 34.7609,37.179080000000006,612.0600000000001 34.76055,37.178760000000004,610.0000000000001 34.759840000000004,37.17841,603.75 34.759220000000006,37.17819,600.1800000000001 34.75891,37.17815,599.7 34.75831,37.17772,596.37 34.75833,37.177620000000005,595.96 34.757889998409446,37.17733500085837,591.86 34.757450000000006,37.17705,580.0200000000001 34.756870000000006,37.17671,577.5400000000001 34.75645,37.176730000000006,569.8000000000001 34.75634,37.17692,566.28 34.756370000000004,37.17723,566.1700000000001 34.75654,37.177310000000006,569.6300000000001 34.756840000000004,37.17792,578.2700000000001 34.756820000000005,37.178360000000005,580.4100000000001 34.756620000000005,37.178920000000005,575.44 34.756640000000004,37.17927,574.25 34.75714,37.17956,576.19 34.75735,37.17963,577.22 34.75753,37.17962,578.99 34.75764,37.179680000000005,579.35 34.757580000000004,37.179860000000005,577.85 34.757600000000004,37.18003,577.6 34.7577,37.180240000000005,577.6300000000001 34.758320000000005,37.18048,580.32 34.7582,37.18075,578.0000000000001 34.758320000000005,37.18095,577.89 34.75856,37.18104,579.74 34.75876,37.181270000000005,581.07 34.759,37.18148,583.2700000000001 34.759150000000005,37.181470000000004,584.64 34.759080000000004,37.18182,585.75 34.75927,37.182080000000006,587.32 34.759420000000006,37.18234,589.1700000000001 34.75959,37.18269,590.0600000000001 34.759820000000005,37.182990000000004,588.4 34.760220000000004,37.18321,588.33 34.76057,37.183260000000004,592.57 34.76062,37.18338,593.55 34.76032,37.183580000000006,591.1800000000001 34.760290000000005,37.183710000000005,592.3000000000001 34.760310000000004,37.183930000000004,594.98 34.760130000000004,37.18424,597.11 34.75996,37.184490000000004,599.09 34.759660000000004,37.1848,601.89 34.75943,37.18513,603.34 34.75888500222384,37.185445001276584,602.8100000000001 34.758340000000004,37.18576,605.46 34.75799,37.18591,607.22 34.757740000000005,37.186,607.8 34.757490000000004,37.18619,610.44 34.757220000000004,37.186280000000004,612.71 34.75659,37.18641,613.1 34.75565,37.186640000000004,616.5200000000001 34.755320000000005,37.18659,616.33 34.755100000000006,37.186600000000006,616.9 34.75488,37.18667000000001,619.83 34.75461,37.18659,619.84 34.753620000000005,37.186820000000004,631.9200000000001 34.75264,37.18674,628.0 34.752430000000004,37.18677,627.5 34.75208,37.186890000000005,627.57 34.75166,37.18697,624.53 34.75137,37.187050000000006,624.8900000000001 34.75106,37.18719,627.0 34.7507,37.18724,629.56 34.750510000000006,37.18733,633.05 34.750400000000006,37.187430000000006,634.96 34.750420000000005,37.18798,637.7 34.750330000000005,37.18816,639.93 34.75027,37.18831,641.5200000000001 34.750370000000004,37.18856,642.45 34.750280000000004,37.18887,644.37 34.74989,37.18959,647.97 34.74972,37.18977,650.49 34.74965,37.19015,650.15 34.749480000000005,37.190310000000004,650.9200000000001 34.74925,37.190630000000006,654.44 34.749190000000006,37.190830000000005,657.81 34.74918,37.191140000000004,661.3 34.749120000000005,37.19173,661.6700000000001 34.74927,37.1925,653.81 34.74908,37.193310000000004,650.37 34.748920000000005,37.19382,654.51 34.74906,37.19455,665.59 34.748960000000004,37.194900000000004,667.95 34.748900000000006,37.19532,667.12 34.74853,37.195870000000006,666.36 34.747930000000004,37.196490000000004,675.2800000000001 34.74777,37.19662,678.47 34.74761,37.196870000000004,684.07 34.74768,37.19715,686.7 34.74795,37.197300000000006,683.74 34.748090000000005,37.197430000000004,684.01 34.74819,37.197790000000005,690.11 34.748160000000006,37.19798,693.3000000000001 34.74815,37.197970000000005,693.3000000000001 34.747800000000005,37.19774,694.35 34.74757,37.197430000000004,692.79 34.74729,37.19717,694.69 34.74716,37.196850000000005,693.71 34.746930000000006,37.19655,699.1500000000001 34.74694,37.1963,700.71 34.74727,37.19604,692.2 34.74705,37.195870000000006,704.08 34.74653,37.19606,717.8100000000001 34.746410000000004,37.19628,720.53 34.7464,37.196600000000004,721.53 34.74663,37.19699,712.9200000000001 34.74663,37.19737000000001,714.5600000000001 34.746390000000005,37.197700000000005,720.87 34.74627,37.197140000000005,726.5500000000001 34.74602,37.19697,735.0600000000001 34.74551,37.196450000000006,759.6700000000001 34.74548,37.19662,763.22 34.74553,37.196870000000004,763.5200000000001 34.74573,37.197120000000005,766.6 34.74579,37.19722,767.1600000000001 34.74579,37.197250000000004,767.1600000000001 34.74575,37.197320000000005,767.84 34.74564,37.1974,769.0100000000001 34.74548,37.19744,770.0100000000001 34.74477,37.19756,772.9200000000001 34.744330000000005,37.19767,776.8000000000001 34.74322,37.19769,782.22 34.7428,37.19782,784.57 34.742540000000005,37.197950000000006,786.7 34.74239,37.19798,787.6500000000001 34.74226,37.197970000000005,788.1400000000001 34.741890000000005,37.19787,789.2600000000001 34.74119,37.19778,791.7700000000001 34.74056,37.19767,793.86 34.74035,37.197680000000005,795.0800000000002 34.74022,37.19771,795.63 34.73998,37.1978,796.64 34.73982,37.19791,798.03 34.739540000000005,37.19823,799.3800000000001 34.73951,37.19836,799.5300000000001 34.739560000000004,37.19859,801.1 34.73951,37.19868,801.7500000000001 34.73944,37.19874,802.83 34.73906,37.19895,804.7 34.73888,37.19903,806.1 34.738690000000005,37.19905,807.6200000000001 34.73816,37.199020000000004,809.6500000000001 34.73798,37.19905,810.32 34.73778,37.19915,811.59 34.73762,37.199540000000006,812.47 34.73718,37.1991,817.4500000000002 34.736380000000004,37.198660000000004,834.69 34.735890000000005,37.1982,848.83 34.7357,37.198080000000004,853.2900000000001 34.73565,37.19802,853.2900000000001 34.73565,37.19798,854.98 34.73572,37.19792,854.98 34.73624,37.197750000000006,864.26 34.73639,37.197680000000005,864.8800000000001 34.73659,37.197430000000004,871.4900000000001 34.73677,37.19729,873.77 34.736975001399905,37.196795000042016,882.21 34.73718,37.1963,894.21 34.73637,37.19585,909.5900000000001 34.736270000000005,37.195820000000005,910.44 34.7361,37.19581,914.45 34.73555,37.19583,922.7400000000001 34.73534,37.195890000000006,924.4100000000001 34.73496,37.19615,930.0600000000001 34.73471,37.19628,931.9300000000001 34.73454,37.19635,933.64 34.734300000000005,37.19641,935.4100000000001 34.73373,37.19643000000001,938.03 34.73355,37.19641,938.6500000000001 34.73335,37.19637,939.6600000000001 34.733000000000004,37.19621,945.4300000000001 34.732850000000006,37.19619,946.6600000000001 34.732780000000005,37.19621,948.12 34.73274,37.19624,948.12 34.7327,37.196310000000004,948.6700000000001 34.732620000000004,37.19659,952.07 34.73256,37.19671,952.86 34.732510000000005,37.19677,953.2300000000001 34.73243,37.196810000000006,954.32 34.7323,37.19682,955.9200000000001 34.73214,37.1968,958.74 34.731550000000006,37.19666,969.46 34.731440000000006,37.19657,972.0000000000001 34.73138,37.1965,972.64 34.73133,37.196400000000004,974.34 34.73131,37.196290000000005,976.5100000000001 34.731570000000005,37.19596000000001,984.35 34.73147,37.195890000000006,984.35 34.73134,37.195870000000006,988.1200000000001 34.73091,37.195870000000006,996.0000000000001 34.730540000000005,37.195910000000005,1000.01 34.73022,37.19601,1005.3400000000001 34.7301,37.195980000000006,1001.6400000000001 34.730000000000004,37.196070000000006,1000.27 34.729820000000004,37.195890000000006,999.1800000000001 34.72966,37.19594,995.5800000000002 34.729470000000006,37.195800000000006,993.3700000000001 34.729350000000004,37.195750000000004,987.7300000000001 34.729200000000006,37.19572,987.7300000000001 34.7291,37.19565,984.45 34.72898,37.195440000000005,982.7500000000001 34.728880000000004,37.195350000000005,980.8000000000001 34.728790000000004,37.195440000000005,977.1 34.728790000000004,37.19559,975.9200000000001 34.728820000000006,37.19577,975.0000000000001 34.7289,37.196000000000005,974.0200000000001 34.72885,37.19608,969.13 34.72946,37.196290000000005,958.25 34.729620000000004,37.19644,958.25 34.72974,37.19673,958.25 34.730070000000005,37.19711,958.25 34.73033,37.19747,986.01 34.730524998921226,37.19789500020133,986.01 34.730720000000005,37.19832,986.01 34.731080000000006,37.198730000000005,986.01 34.73109,37.198910000000005,986.01 34.731030000000004,37.19926,986.01 34.730610000000006,37.19986,986.01 34.7301,37.200320000000005,986.01 34.729580000000006,37.200860000000006,1002.27 34.7291,37.20103,1002.27 34.72889,37.201040000000006,1002.27 34.728500000000004,37.200970000000005,1002.27 34.72838,37.20098,1002.27 34.72795,37.201220000000006,1002.27 34.72787,37.20143,1002.27 34.727790000000006,37.2019,1002.27 34.72768,37.202090000000005,1015.4300000000001 34.727320000000006,37.20257,1015.4300000000001 34.72722,37.20264,1015.4300000000001 34.72683,37.20235,1015.46 34.726600000000005,37.202290000000005,1015.46 34.726060000000004,37.202270000000006,1015.46 34.72583,37.202220000000004,980.6700000000001 34.7256,37.20214,980.6700000000001 34.7254,37.202040000000004,980.6700000000001 34.725,37.20165,980.6700000000001 34.72475,37.201530000000005,980.6700000000001 34.72464,37.20152,980.6700000000001 34.72404,37.20176,957.85 34.72345,37.20187,957.85 34.72325,37.201800000000006,962.5600000000001 34.723130000000005,37.20177,959.5100000000001 34.723040000000005,37.20183,956.07 34.72289,37.2017,951.6000000000001 34.72288,37.201460000000004,951.6000000000001 34.72301,37.201460000000004,951.6000000000001 34.72323,37.20152,951.6000000000001 34.72334,37.2015,951.6000000000001 34.72343,37.20141,951.6000000000001 34.72355,37.20118,951.6000000000001 34.72354,37.20112,951.6000000000001 34.72348,37.201080000000005,951.6000000000001 34.72332,37.201040000000006,951.6000000000001 34.723240000000004,37.201,951.6000000000001 34.722660000000005,37.20049,901.02 34.72204,37.200030000000005,901.02 34.72191,37.19991,901.02 34.72185,37.19981000000001,901.02 34.72166,37.19932,901.02 34.72164,37.199130000000004,901.02 34.721680000000006,37.19895,901.02 34.72152499899838,37.1984650000829,901.02 34.72137,37.19798,901.02 34.720980000000004,37.197340000000004,901.02 34.72079,37.19693,901.02 34.72068,37.196760000000005,901.02 34.72017,37.19628,823.09 34.719710000000006,37.19592,823.09 34.71938,37.196020000000004,823.09 34.719150000000006,37.19615,823.09 34.718810000000005,37.196400000000004,823.09 34.71869,37.19644,823.09 34.718450000000004,37.196470000000005,823.09 34.718340000000005,37.19644,823.09 34.718120000000006,37.196250000000006,823.09 34.71797,37.19617,823.09 34.717110000000005,37.195980000000006,820.74 34.71679,37.195930000000004,820.74 34.716300000000004,37.1959,820.74 34.71582,37.195780000000006,820.9300000000001 34.715680000000006,37.195780000000006,820.9300000000001 34.71562,37.19579,820.9300000000001 34.71549,37.19586,820.9300000000001 34.71524,37.19606,820.9300000000001 34.714870000000005,37.196090000000005,821.23 34.71406,37.19603,821.23 34.713890000000006,37.196220000000004,821.23 34.713730000000005,37.19644,821.23 34.713570000000004,37.196720000000006,821.23 34.71349,37.197,821.23 34.713440000000006,37.197100000000006,821.23 34.713240000000006,37.19736,821.23 34.71303,37.19773,821.23 34.71293,37.198010000000004,821.23 34.71293,37.1983,760.87 34.713,37.19854,760.87 34.71325,37.19887000000001,760.87 34.71331,37.19903,760.87 34.71331,37.19926,760.87 34.71323,37.199670000000005,760.87 34.71316,37.19982,760.87 34.71262,37.200390000000006,760.87 34.712610000000005,37.200480000000006,760.87 34.71224,37.20087,732.35 34.71199,37.20084000000001,732.35 34.711710000000004,37.20087,732.35 34.711450000000006,37.20096,732.35 34.71115,37.201190000000004,732.35 34.711020000000005,37.20127,732.35 34.71065,37.20141,732.35 34.71045,37.20154,732.35 34.710390000000004,37.201600000000006,704.64 34.710420000000006,37.201660000000004,704.64 34.710530000000006,37.20167,704.64 34.71074,37.201600000000006,704.64 34.71096,37.20158,704.64 34.71163,37.20159,704.64 34.711710000000004,37.201640000000005,704.64 34.7119,37.20183,704.64 34.71209,37.20197,704.64 34.71213,37.202040000000004,704.64 34.71211,37.20208,704.64 34.7121,37.2021,704.64 34.71197,37.20217,704.64 34.71181,37.20217,704.64 34.711670000000005,37.20214,704.64 34.71148,37.20205,704.64 34.71134,37.20203,704.64 34.71121,37.20206,704.64 34.710730000000005,37.20225000000001,704.64 34.710240000000006,37.202420000000004,704.64 34.71,37.20257,704.64 34.709830000000004,37.202650000000006,704.64 34.709500000000006,37.202690000000004,672.1 34.70942,37.20272000000001,672.1 34.70908,37.203100000000006,672.1 34.70875,37.203300000000006,672.1 34.70863,37.203410000000005,672.1 34.708380000000005,37.20374,672.1 34.70803,37.20393,672.1 34.707800000000006,37.20396,672.1 34.707570000000004,37.204010000000004,672.1 34.70713,37.204150000000006,667.54 34.706950000000006,37.20423,667.54 34.706880000000005,37.20425,667.54 34.705830000000006,37.20427,667.54 34.70561,37.2043,667.54 34.705450000000006,37.20429,667.54 34.705400000000004,37.20425,667.54 34.705400000000004,37.204190000000004,667.54 34.70544,37.204040000000006,667.54 34.705450000000006,37.20353,667.54 34.705470000000005,37.20333,667.54 34.70552,37.20322,672.47 34.70561,37.203140000000005,672.47 34.70575,37.203100000000006,672.47 34.70599,37.20309,672.47 34.70646,37.20302,672.47 34.70651,37.202980000000004,672.47 34.70662,37.20281,672.47 34.70671,37.20277,672.47 34.70698,37.202740000000006,672.47 34.70703,37.2027,672.47 34.70705,37.20252,672.47 34.70711,37.20243,672.47 34.70727,37.202290000000005,672.47 34.707370000000004,37.2021,672.47 34.707260000000005,37.2021,672.47 34.706860000000006,37.202220000000004,672.47 34.706450000000004,37.2023,672.47 34.706230000000005,37.202310000000004,672.47 34.70584,37.20228,672.47 34.70568,37.20223,672.47 34.705560000000006,37.20223,672.47 34.70523,37.20228,672.47 34.70501,37.202290000000005,672.47 34.70454,37.20224,672.47 34.703630000000004,37.20226,622.2 34.703520000000005,37.202290000000005,622.2 34.70329,37.20239,622.2 34.703070000000004,37.20243,622.2 34.70266,37.202560000000005,622.2 34.702000000000005,37.20264,622.2 34.70158,37.20272000000001,622.2 34.70159,37.20272000000001,622.2 34.701150000000005,37.202890000000004,622.2 34.70111,37.20295,622.2 34.701130000000006,37.20299,622.2 34.70159,37.203160000000004,622.2 34.701930000000004,37.20331,622.2 34.702000000000005,37.20337,622.2 34.702000000000005,37.20342,622.2 34.701660000000004,37.20364,622.2 34.70159,37.20376,622.2 34.70152,37.203790000000005,622.2 34.7014,37.203790000000005,622.2 34.701130000000006,37.20373,577.6 34.700810000000004,37.203700000000005,577.6 34.70062,37.20371,577.6 34.700520000000004,37.20375000000001,577.6 34.700500000000005,37.2038,577.6 34.70056,37.203880000000005,577.6 34.700660000000006,37.203950000000006,577.6 34.701040000000006,37.20414,577.6 34.701190000000004,37.20418,577.6 34.70176,37.20418,577.6 34.70226,37.204150000000006,577.6 34.702310000000004,37.2042,577.6 34.7023,37.20427,577.6 34.702110000000005,37.20449,577.6 34.70205,37.20459,577.6 34.70199,37.20485,577.6 34.70179,37.205090000000006,577.6 34.70177,37.20526,577.6 34.70183,37.20557,590.33 34.70194,37.20581,590.33 34.7019,37.205870000000004,590.33 34.70183,37.2059,590.33 34.7017,37.20591,590.33 34.70118,37.20606,590.33 34.70102,37.20619000000001,590.33 34.701010000000004,37.20619000000001,590.35 34.70065,37.206050000000005,590.35 34.70008,37.205870000000004,590.35 34.69988,37.20575,590.35 34.69979,37.205670000000005,590.35 34.69968,37.205490000000005,590.35 34.69957,37.20535,590.35 34.69941,37.20526,590.35 34.69919,37.205220000000004,590.35 34.699070000000006,37.205220000000004,590.35 34.698730000000005,37.20534,590.35 34.69861,37.20534,590.35 34.69849,37.205290000000005,590.35 34.698260000000005,37.205130000000004,590.35 34.69802,37.204860000000004,590.35 34.697880000000005,37.20479,566.3000000000001 34.69776,37.20467,566.3000000000001 34.69767,37.20461,566.3000000000001 34.69753,37.204570000000004,566.3000000000001 34.69733,37.204480000000004,566.3000000000001 34.697070000000004,37.204330000000006,566.3000000000001 34.69695,37.20431,566.3000000000001 34.696670000000005,37.20432,566.3000000000001 34.6963,37.204240000000006,566.3000000000001 34.69614,37.20427,566.3000000000001 34.69592,37.204390000000004,566.3000000000001 34.69581,37.20443,566.3000000000001 34.695660000000004,37.20443,566.3000000000001 34.695280000000004,37.20432,566.3000000000001 34.69487,37.20432,566.3000000000001 34.69471,37.20427,566.3000000000001 34.694630000000004,37.20421,566.3000000000001 34.69456,37.20411,566.3000000000001 34.694370000000006,37.203520000000005,566.83 34.69436,37.20344,566.83 34.69444,37.20335,566.83 34.69455,37.20329,566.83 34.694590000000005,37.203230000000005,566.83 34.69454,37.2032,566.83 34.69444,37.2032,566.83 34.694230000000005,37.20326,566.83 34.694,37.20327,566.83 34.69371,37.203250000000004,566.83 34.693560000000005,37.20326,566.83 34.693470000000005,37.203320000000005,566.83 34.693400000000004,37.203450000000004,566.83 34.69335,37.20349,566.83 34.69328,37.20346,566.83 34.693250000000006,37.203410000000005,566.83 34.693270000000005,37.203300000000006,608.5500000000001 34.69337,37.203140000000005,608.5500000000001 34.69348,37.20309,608.5500000000001 34.69406,37.203,608.5500000000001 34.694160000000004,37.20295,608.5500000000001 34.69417,37.2029,608.5500000000001 34.69413,37.202870000000004,608.5500000000001 34.69373,37.20286,608.5500000000001 34.69301,37.202740000000006,608.5500000000001 34.692910000000005,37.202760000000005,609.7300000000001 34.69283,37.20281,610.7900000000001 34.6927,37.202960000000004,612.2700000000001 34.69234,37.20308,617.58 34.6918,37.20308,620.58 34.69156,37.202980000000004,621.0500000000001 34.69142,37.20295,621.86 34.69071,37.202920000000006,624.8800000000001 34.69052,37.203,626.41 34.69032,37.203030000000005,628.05 34.69021,37.203070000000004,628.9800000000001 34.690200000000004,37.203120000000006,629.5200000000001 34.69023,37.203190000000006,631.2800000000001 34.690470000000005,37.203250000000004,632.83 34.6906,37.203320000000005,635.08 34.69099,37.203660000000006,640.41 34.691190000000006,37.20376,644.95 34.691250000000004,37.20384,645.6700000000001 34.691230000000004,37.203920000000004,646.96 34.69117,37.203950000000006,647.51 34.69106,37.203920000000004,649.0400000000001 34.69068,37.20369,652.9100000000001 34.69032,37.203570000000006,658.83 34.68999,37.203540000000004,659.86 34.68954,37.203450000000004,663.7900000000001 34.68938,37.203450000000004,664.2900000000001 34.68878,37.203630000000004,666.88 34.68842,37.203680000000006,670.78 34.68791,37.203660000000006,672.9000000000001 34.68762,37.20367,674.91 34.687340000000006,37.20371,675.94 34.686870000000006,37.20387,679.47 34.686620000000005,37.203920000000004,681.2800000000001 34.68585,37.203970000000005,687.7 34.685190000000006,37.20414,693.4300000000001 34.68504,37.204130000000006,695.8100000000001 34.68432,37.203660000000006,702.67 34.683840000000004,37.20344,706.88 34.683530000000005,37.203390000000006,708.9000000000001 34.68323,37.203450000000004,710.3000000000001 34.683080000000004,37.203390000000006,710.96 34.68305,37.20328000000001,711.61 34.683080000000004,37.203100000000006,714.44 34.682990000000004,37.202920000000006,716.1800000000001 34.682570000000005,37.202540000000006,720.72 34.682170000000006,37.202270000000006,724.7600000000001 34.681810000000006,37.2021,728.5600000000001 34.68169,37.20201,729.72 34.6817,37.201890000000006,730.75 34.681830000000005,37.20181,731.38 34.682550000000006,37.20172,735.53 34.68316,37.201710000000006,741.1800000000001 34.68385,37.20183,745.6100000000001 34.684110000000004,37.20183,746.3400000000001 34.68448,37.201750000000004,747.1500000000001 34.6852,37.2017,749.4200000000001 34.68574,37.201570000000004,752.3700000000001 34.686060000000005,37.201530000000005,754.56 34.68694,37.20149,762.3700000000001 34.687250000000006,37.201420000000006,764.1300000000001 34.687450000000005,37.2013,765.3000000000001 34.68757,37.201260000000005,765.3000000000001 34.687670000000004,37.20127,765.3000000000001 34.68798,37.20138,765.3000000000001 34.68862,37.20141,765.3000000000001 34.6891,37.2014,784.22 34.69008,37.201260000000005,784.22 34.69053,37.201150000000005,784.22 34.6906,37.201080000000005,784.22 34.69061,37.20107,784.22 34.69068,37.20073,784.22 34.690780000000004,37.200570000000006,784.22 34.691230000000004,37.20017,784.22 34.69173,37.19957,784.22 34.69216,37.19924,784.22 34.692310000000006,37.19899,784.22 34.69234,37.19886,784.22 34.692310000000006,37.198750000000004,784.22 34.69221,37.19858,784.22 34.69223,37.198460000000004,784.22 34.69234,37.1983,829.82 34.69247,37.19787,829.82 34.69248000007165,37.19733499995877,829.82 34.69249,37.1968,829.82 34.69257,37.19673,829.82 34.69265,37.196690000000004,829.82 34.69276,37.196720000000006,829.82 34.69296,37.19686,829.82 34.69335999795872,37.19721500053014,829.82 34.693760000000005,37.197570000000006,829.82 34.69384,37.197570000000006,829.82 34.69391,37.197520000000004,830.32 34.69381999934001,37.19697000000776,834.32 34.69373,37.19642,838.7800000000001 34.69371,37.196020000000004,842.28 34.693580000000004,37.195550000000004,844.22 34.693470000000005,37.194950000000006,850.0900000000001 34.693110000000004,37.194140000000004,856.99 34.6931,37.19413,856.99 34.692980000000006,37.193920000000006,858.26 34.69277,37.19371,860.2700000000001 34.69222999721013,37.19330000133357,866.1 34.69169,37.192890000000006,870.72 34.691520000000004,37.192710000000005,873.26 34.691320000000005,37.192440000000005,876.8100000000001 34.690920000000006,37.1922,878.2800000000001 34.69041,37.19196,882.3000000000001 34.68988,37.19178,884.1500000000001 34.68966,37.191660000000006,886.97 34.68921,37.19115,891.1300000000001 34.689060000000005,37.191100000000006,891.6 34.688860000000005,37.191100000000006,891.6 34.68838,37.19116,891.6 34.68816,37.191120000000005,891.6 34.68791,37.191,891.6 34.68773,37.19095,891.6 34.68755,37.190960000000004,891.6 34.68742,37.19104,891.6 34.68732,37.191190000000006,891.6 34.68704,37.19174,891.6 34.68692,37.1921,891.6 34.68681,37.19223,891.6 34.686690000000006,37.192280000000004,891.6 34.68618,37.19243,891.6 34.68585,37.192600000000006,891.6 34.68569,37.192660000000004,907.2 34.685460000000006,37.192640000000004,907.2 34.68529,37.19258,907.2 34.68484,37.192260000000005,907.2 34.68469,37.19221,907.2 34.68455,37.19221,907.2 34.68444,37.19227,907.2 34.684180000000005,37.19248,907.2 34.684050000000006,37.19252,907.2 34.68368,37.19258,907.2 34.68356,37.192640000000004,907.2 34.6832,37.193090000000005,907.2 34.683110000000006,37.193180000000005,907.2 34.683,37.193220000000004,907.2 34.682770000000005,37.19321,907.2 34.68256,37.193180000000005,907.2 34.68222,37.19301,907.2 34.68209,37.192890000000006,907.2 34.681960000000004,37.192710000000005,907.2 34.681850000000004,37.19259,907.2 34.681650000000005,37.192460000000004,907.2 34.680939997472436,37.19218500214095,910.61 34.68023,37.19191,910.61 34.679990000000004,37.19158,910.61 34.679880000000004,37.19149,910.61 34.679730000000006,37.191410000000005,910.61 34.67951,37.19138,910.61 34.67931,37.19131,910.61 34.67918,37.191230000000004,910.61 34.679080000000006,37.191010000000006,910.61 34.679010000000005,37.190540000000006,910.61 34.67884,37.190220000000004,897.63 34.67878,37.189960000000006,897.63 34.67879,37.189530000000005,897.63 34.67873,37.189370000000004,897.63 34.678580000000004,37.1892,897.63 34.6781,37.188840000000006,897.63 34.67741,37.188390000000005,897.63 34.67716,37.18831,897.63 34.67685,37.188280000000006,897.63 34.676520000000004,37.18827,897.63 34.67613,37.188210000000005,882.96 34.67537,37.187990000000006,882.96 34.675090000000004,37.18793,882.96 34.675540000000005,37.18793,882.96 34.67607,37.18797,882.96 34.676480000000005,37.18789,882.96 34.67696,37.187760000000004,867.2700000000001 34.67718,37.18773,867.2700000000001 34.67752,37.187740000000005,867.2700000000001 34.677730000000004,37.18777,867.2700000000001 34.678050000000006,37.18791,867.2700000000001 34.678990000000006,37.188280000000006,859.9000000000001 34.67909,37.188280000000006,859.9000000000001 34.679100000000005,37.188280000000006,859.8800000000001 34.6784,37.187670000000004,859.8800000000001 34.67795,37.187360000000005,859.8800000000001 34.6775,37.18712,859.8800000000001 34.67718,37.18679,859.8800000000001 34.676700000000004,37.18657,859.8800000000001 34.67649,37.186530000000005,859.8800000000001 34.67633,37.18656,859.8800000000001 34.676120000000004,37.18668,814.12 34.67573,37.186820000000004,814.12 34.67539,37.1869,814.12 34.67512,37.18694,814.12 34.67488,37.18695,814.12 34.674780000000005,37.186930000000004,814.12 34.67468,37.18688,814.12 34.674620000000004,37.186820000000004,814.12 34.674600000000005,37.18676,814.12 34.67461,37.18672,814.12 34.67465,37.18668,814.12 34.67513,37.18654,814.12 34.67539,37.186330000000005,814.12 34.6756,37.18620000000001,814.12 34.67564,37.186080000000004,814.12 34.6756,37.18576,814.12 34.675560000000004,37.18571,814.12 34.67483999761443,37.1854700021458,814.12 34.67412,37.185230000000004,814.0 34.67419,37.18497,812.42 34.67457,37.18498,811.39 34.675180000000005,37.185140000000004,812.6700000000001 34.675380000000004,37.18531,812.6200000000001 34.675790000000006,37.18531,814.71 34.676320000000004,37.185230000000004,814.71 34.67645,37.18517000000001,814.71 34.67662,37.185,814.71 34.676700000000004,37.18495,814.71 34.67681,37.184920000000005,814.71 34.67743,37.184830000000005,814.71 34.677550000000004,37.1848,814.71 34.677910000000004,37.18462,814.71 34.6783,37.184540000000005,821.08 34.678540000000005,37.184520000000006,821.08 34.678960000000004,37.184250000000006,821.08 34.679280000000006,37.18397,821.08 34.67942,37.183820000000004,821.08 34.679520000000004,37.183670000000006,821.08 34.679550000000006,37.18352,821.08 34.679520000000004,37.183440000000004,821.08 34.679300000000005,37.18316,821.08 34.679140000000004,37.183060000000005,821.08 34.679410000000004,37.182770000000005,822.2700000000001 34.679860000000005,37.18245,821.27 34.6801,37.18238,819.7200000000001 34.68052,37.182550000000006,810.32 34.68117,37.182170000000006,813.5000000000001 34.681400000000004,37.18207,816.33 34.682100000000005,37.181990000000006,808.25 34.68301,37.18175,808.25 34.683260000000004,37.18164,808.25 34.683490000000006,37.181580000000004,808.25 34.68397,37.181650000000005,808.25 34.685,37.18162,808.25 34.685950000000005,37.18164,808.25 34.686040000000006,37.181630000000006,808.25 34.686240000000005,37.181560000000005,808.25 34.68636,37.18144,808.25 34.686530000000005,37.18115,808.25 34.686600000000006,37.18106,808.25 34.68676,37.18092,808.25 34.686890000000005,37.18084,808.25 34.687020000000004,37.180640000000004,808.25 34.687090000000005,37.18048,808.25 34.68719,37.18036,808.25 34.68723,37.180330000000005,808.25 34.68735,37.18029000000001,808.25 34.68798,37.180220000000006,748.7900000000001 34.688050000000004,37.180170000000004,748.7900000000001 34.68813,37.180080000000004,748.7900000000001 34.68815,37.17994,748.7900000000001 34.68807,37.17978,748.7900000000001 34.68793,37.17967,748.7900000000001 34.687650000000005,37.179500000000004,748.7900000000001 34.68739,37.179280000000006,748.7900000000001 34.68726,37.17911,748.7900000000001 34.68724,37.179050000000004,748.7900000000001 34.6873,37.179,748.7900000000001 34.68744,37.179,748.7900000000001 34.68777,37.179050000000004,748.7900000000001 34.68827,37.17916,748.7900000000001 34.689060000000005,37.179230000000004,748.7900000000001 34.68929,37.17927,748.7900000000001 34.68939,37.179320000000004,748.7900000000001 34.68943,37.1794,748.7900000000001 34.68941,37.179550000000006,748.7900000000001 34.68943,37.179610000000004,748.7900000000001 34.68988,37.17983,748.7900000000001 34.690200000000004,37.179930000000006,748.7900000000001 34.690560000000005,37.179930000000006,748.7900000000001 34.69088,37.17989,748.7900000000001 34.691210000000005,37.17976,748.7900000000001 34.691390000000006,37.17965,748.7900000000001 34.69145,37.179550000000006,748.7900000000001 34.69145,37.179480000000005,748.7900000000001 34.691410000000005,37.17938,748.7900000000001 34.69111,37.17902,748.7900000000001 34.69077,37.17871,748.7900000000001 34.69075,37.17866,748.7900000000001 34.690870000000004,37.178610000000006,748.7900000000001 34.69164,37.178540000000005,714.8100000000001 34.69221,37.17855,714.8100000000001 34.692690000000006,37.17848,714.8100000000001 34.69348,37.17846,714.8100000000001 34.69371,37.17844,714.8100000000001 34.69409,37.1783,714.8100000000001 34.694100000000006,37.178290000000004,714.8100000000001 34.69460500219054,37.17798500097992,714.8100000000001 34.69511,37.17768,714.8100000000001 34.695220000000006,37.17757,714.8100000000001 34.695220000000006,37.177510000000005,714.8100000000001 34.695190000000004,37.17743,714.8100000000001 34.69493,37.177110000000006,714.8100000000001 34.69478,37.176880000000004,690.0500000000001 34.69473,37.176730000000006,690.0500000000001 34.69471,37.176500000000004,690.0500000000001 34.694660000000006,37.176390000000005,690.0500000000001 34.694280000000006,37.17609,690.0500000000001 34.693940000000005,37.17586,690.0500000000001 34.69335,37.17555,690.0500000000001 34.69312,37.175470000000004,690.0500000000001 34.692710000000005,37.175450000000005,690.0500000000001 34.692600000000006,37.17537,690.0500000000001 34.692620000000005,37.17528,690.0500000000001 34.692820000000005,37.17501,690.0500000000001 34.69315,37.17484,698.4 34.69355,37.17481,698.4 34.694280000000006,37.17443,698.4 34.694390000000006,37.17428,698.4 34.69447,37.17421,698.4 34.694570000000006,37.17421,698.4 34.69511,37.17441,698.4 34.695280000000004,37.174420000000005,698.4 34.69548,37.174350000000004,698.4 34.69583,37.174130000000005,698.4 34.69596,37.174080000000004,698.4 34.696130000000004,37.17412,698.4 34.69644,37.174290000000006,708.1800000000001 34.69652,37.17436,708.1800000000001 34.696720000000006,37.17445,708.1800000000001 34.69702,37.174510000000005,708.1800000000001 34.6972,37.1745,708.1800000000001 34.69722,37.17446,708.1800000000001 34.697210000000005,37.174400000000006,708.1800000000001 34.69697,37.174,708.1800000000001 34.69688,37.1739,708.1800000000001 34.69746,37.173750000000005,708.1800000000001 34.69819499950749,37.17379000226414,708.1800000000001 34.698930000000004,37.17383,708.1800000000001 34.6993,37.17383,708.1800000000001 34.70015,37.173790000000004,681.82 34.70051,37.17381,681.82 34.700900000000004,37.173750000000005,681.82 34.70165,37.174060000000004,681.82 34.701950000000004,37.174240000000005,681.82 34.702630000000006,37.17441,669.85 34.70286,37.17452,669.85 34.702980000000004,37.17472,669.85 34.70309,37.17479,669.85 34.703120000000006,37.17474,669.85 34.70311,37.17434,669.85 34.70306,37.174240000000005,669.85 34.702890000000004,37.174060000000004,669.85 34.70279,37.17398,669.85 34.70228,37.17372,669.85 34.70223,37.17372,669.85 34.702110000000005,37.17363,669.85 34.70176,37.17331,669.85 34.7015,37.17287,638.17 34.701280000000004,37.1726,638.17 34.70082,37.17215,638.17 34.70058,37.17201,638.17 34.70033,37.17195,638.17 34.69988,37.17188,638.17 34.69964,37.17177,638.17 34.699650000000005,37.171760000000006,638.17 34.69964,37.171760000000006,638.17 34.6997,37.171730000000004,638.17 34.700250000000004,37.171580000000006,638.17 34.70084,37.17152,638.17 34.701190000000004,37.17141,638.17 34.70131,37.17139,638.17 34.701460000000004,37.171420000000005,638.17 34.701820000000005,37.17154,638.17 34.702540000000006,37.17152,607.46 34.70297,37.17156,607.46 34.70306,37.17155,607.46 34.70315,37.17152,607.46 34.70327,37.171420000000005,607.46 34.70344,37.17112,607.46 34.703680000000006,37.170930000000006,607.46 34.704060000000005,37.17067,607.46 34.70416,37.17062,607.46 34.70434,37.17056,607.46 34.70425,37.17038,620.0100000000001 34.70411,37.170320000000004,624.72 34.703660000000006,37.170100000000005,641.22 34.7034,37.17013,646.6400000000001 34.70342,37.170030000000004,650.6400000000001 34.7036,37.169850000000004,656.59 34.70378,37.16971,664.2800000000001 34.70389,37.169650000000004,664.6200000000001 34.70405,37.169610000000006,666.8000000000001 34.70429,37.16951,671.0500000000001 34.70445,37.169470000000004,672.4300000000001 34.704570000000004,37.16949,670.0200000000001 34.70469,37.16953,667.88 34.704950000000004,37.169430000000006,675.6200000000001 34.70521,37.16937,680.7700000000001 34.705760000000005,37.16903000000001,700.2600000000001 34.7062,37.16881,713.96 34.706320000000005,37.168780000000005,714.58 34.706540000000004,37.16866,717.94 34.70667,37.16863,719.6 34.706810000000004,37.16866,718.8500000000001 34.707100000000004,37.168690000000005,720.08 34.70749,37.16868,718.4200000000001 34.707890000000006,37.168710000000004,714.99 34.707910000000005,37.168600000000005,719.3900000000001 34.70765,37.16856000000001,721.62 34.70754,37.1685,724.84 34.707420000000006,37.16848,726.8000000000001 34.70732,37.16841,729.7900000000001 34.70718,37.168380000000006,731.7800000000001 34.706680000000006,37.168150000000004,739.5500000000001 34.70653,37.16812,741.01 34.70638,37.1681,742.95 34.7058,37.168110000000006,743.1600000000001 34.70543,37.16809000000001,743.7600000000001 34.705270000000006,37.1681,743.85 34.70512,37.16808,743.85 34.704950000000004,37.16808,744.3100000000001 34.70463,37.168040000000005,749.0500000000001 34.70418,37.16803,749.09 34.70367,37.168000000000006,750.2200000000001 34.7034,37.167930000000005,751.32 34.70328,37.16789,752.3000000000001 34.70315,37.167880000000004,751.44 34.702980000000004,37.16792,748.71 34.703050000000005,37.167790000000004,755.51 34.703450000000004,37.16772,761.9300000000001 34.703590000000005,37.167730000000006,762.9200000000001 34.70373,37.16771,763.75 34.703880000000005,37.167730000000006,764.39 34.704170000000005,37.16769,766.63 34.70458,37.16771,765.21 34.704860000000004,37.16765,768.4200000000001 34.70514,37.167570000000005,771.72 34.70526,37.167550000000006,773.4300000000001 34.70539,37.16752,775.0400000000001 34.70552,37.16751,774.58 34.70564,37.167460000000005,775.8900000000001 34.705920000000006,37.16743,776.8100000000001 34.706070000000004,37.16736,779.19 34.70622,37.16733,779.2 34.70635,37.167280000000005,780.3500000000001 34.706630000000004,37.16722,776.85 34.70714,37.1672,770.0300000000001 34.707370000000004,37.16716,767.8000000000001 34.707300000000004,37.16709,770.4300000000001 34.70718,37.167100000000005,771.83 34.707040000000006,37.167080000000006,775.9200000000001 34.70673,37.167010000000005,784.21 34.706410000000005,37.167,790.7900000000001 34.70627,37.16698,795.9100000000001 34.70597,37.16698,800.82 34.70584,37.16695,803.7900000000001 34.705690000000004,37.16693,805.0 34.70539,37.16696,804.34 34.70468,37.166830000000004,814.4100000000001 34.70441,37.166740000000004,819.35 34.704260000000005,37.16673,819.2900000000001 34.704010000000004,37.166650000000004,823.25 34.70387,37.166650000000004,823.4200000000001 34.703700000000005,37.16662,825.32 34.70356,37.16657,828.4200000000001 34.703410000000005,37.16657,827.52 34.70329,37.16653,828.4800000000001 34.702850000000005,37.16651,827.0400000000001 34.70255,37.166520000000006,827.4300000000001 34.70217,37.16646,832.9399999999999 34.70201,37.166470000000004,833.2700000000001 34.70141,37.166790000000006,824.22 34.70102,37.166920000000005,822.4100000000001 34.70073,37.166990000000006,823.69 34.7006,37.16698,825.6800000000001 34.70046,37.167,827.58 34.70018,37.166970000000006,830.76 34.699760000000005,37.16686,853.01 34.69966,37.166810000000005,858.4 34.69981,37.16677,859.7300000000001 34.69995,37.166790000000006,853.9200000000001 34.700230000000005,37.1668,847.3100000000001 34.70065,37.166650000000004,852.4 34.70076,37.1666,855.57 34.700860000000006,37.16651,858.83 34.70098,37.16646,860.26 34.701190000000004,37.166270000000004,866.84 34.70141,37.166140000000006,868.5100000000001 34.701620000000005,37.16599,870.1800000000001 34.70186,37.16586,872.07 34.70199,37.16584,871.44 34.702270000000006,37.165760000000006,871.7 34.702670000000005,37.16561,879.71 34.7028,37.16554,883.83 34.70326,37.16541,892.21 34.70418,37.165290000000006,895.34 34.704440000000005,37.165330000000004,893.6100000000001 34.70469,37.16539,890.6500000000001 34.704840000000004,37.165350000000004,890.1000000000001 34.705000000000005,37.165350000000004,886.8800000000001 34.70503,37.16525,887.33 34.70503,37.165150000000004,889.2500000000001 34.705000000000005,37.16507,889.1700000000001 34.704910000000005,37.16499,891.26 34.704800000000006,37.164930000000005,894.3700000000001 34.70477,37.164840000000005,894.46 34.70469,37.16478,894.6 34.704330000000006,37.16471000000001,901.78 34.70412,37.164620000000006,904.84 34.70394,37.164500000000004,907.72 34.70387,37.16442,908.7700000000001 34.70376,37.164350000000006,908.75 34.70373,37.16425,908.0600000000001 34.703570000000006,37.164100000000005,907.6800000000001 34.70337,37.163970000000006,909.12 34.70331,37.16386,908.22 34.70329,37.16364,901.44 34.703340000000004,37.16355,896.6200000000001 34.70337,37.16346,893.23 34.703340000000004,37.16335,891.8800000000001 34.703250000000004,37.16328,893.75 34.70319,37.163180000000004,894.12 34.70319,37.163090000000004,895.3700000000001 34.70344,37.16261,886.33 34.70402,37.16263,864.32 34.70434,37.16203,859.08 34.70438,37.16178,860.25 34.704730000000005,37.16142,856.2 34.70572500557975,37.16100000413742,835.5 34.706720000000004,37.16058,821.35 34.70691,37.16029,827.64 34.70712,37.16017,827.9900000000001 34.70738,37.16039,814.6000000000001 34.708000000000006,37.16058,803.9300000000001 34.70835,37.160650000000004,798.6 34.70918,37.160560000000004,789.3000000000001 34.709920000000004,37.160180000000004,785.82 34.710460000000005,37.159960000000005,784.39 34.71078,37.159890000000004,780.3100000000001 34.71107,37.15981,774.6700000000001 34.71137,37.159510000000004,779.1 34.711510000000004,37.159400000000005,779.85 34.71146,37.1595,775.58 34.711450000000006,37.159620000000004,770.1300000000001 34.71132,37.15981,765.5200000000001 34.71117,37.159940000000006,764.32 34.71103,37.160050000000005,765.97 34.710800000000006,37.16017,768.02 34.71061,37.160410000000006,766.6500000000001 34.7106,37.1608,756.08 34.710660000000004,37.161210000000004,741.82 34.710660000000004,37.16149,733.3000000000001 34.710570000000004,37.16171000000001,729.4100000000001 34.71036,37.16179,733.83 34.70984,37.1621,744.35 34.7098,37.16237,739.71 34.71025,37.162420000000004,722.9100000000001 34.71078,37.162380000000006,719.2900000000001 34.71096,37.16232,716.0300000000001 34.710980000000006,37.162310000000005,716.0300000000001 34.711670000000005,37.161750000000005,702.03 34.711850000000005,37.16142,699.67 34.71195,37.16127,696.9300000000001 34.71264,37.160830000000004,690.12 34.71313,37.160320000000006,684.46 34.7137250054622,37.15963000145095,687.82 34.71432,37.15894,689.6800000000001 34.71439,37.158910000000006,689.69 34.7145,37.15889,689.73 34.715030000000006,37.15887,688.64 34.71519,37.158820000000006,687.57 34.715320000000006,37.158730000000006,686.19 34.71549,37.158550000000005,684.1100000000001 34.715790000000005,37.15813,677.76 34.71607,37.15787,676.8000000000001 34.716240000000006,37.15762,675.7700000000001 34.71674,37.15704,670.49 34.71678,37.15713,669.12 34.71679,37.1574,665.0600000000001 34.716750000000005,37.15742,665.0600000000001 34.71661,37.15766,658.5500000000001 34.7164,37.15823,650.0300000000001 34.71638,37.15834,647.9100000000001 34.71638,37.15856,644.48 34.716350000000006,37.15869,643.38 34.716100000000004,37.15907,640.3100000000001 34.71587,37.15927000000001,636.95 34.71575,37.1595,634.94 34.71553,37.15966,633.7100000000002 34.71549,37.159710000000004,633.59 34.715450000000004,37.159850000000006,633.34 34.715450000000004,37.16002,632.56 34.715340000000005,37.160320000000006,629.5200000000001 34.71506,37.160940000000004,628.2700000000001 34.71497,37.161190000000005,624.41 34.71477,37.16147,623.2700000000001 34.714760000000005,37.16156,623.23 34.71484,37.16194,622.0 34.71484,37.162060000000004,621.3100000000001 34.71446,37.16277,613.82 34.71444,37.16288,612.33 34.71445,37.1632,609.09 34.714380000000006,37.163410000000006,605.0600000000001 34.71441,37.163470000000004,605.0600000000001 34.71453,37.16357,602.99 34.71464,37.16369,602.44 34.714780000000005,37.16416,595.59 34.714980000000004,37.164350000000006,591.2900000000001 34.71508,37.164410000000004,590.13 34.71513,37.164410000000004,590.13 34.71517,37.164390000000004,588.0200000000001 34.715210000000006,37.16433,588.0200000000001 34.715500000000006,37.163790000000006,583.62 34.71555,37.16367,583.1500000000001 34.715590000000006,37.163430000000005,581.44 34.715720000000005,37.163270000000004,581.21 34.716150000000006,37.163520000000005,573.33 34.7167,37.16351,562.62 34.71717,37.16337,552.36 34.71759,37.1636,541.52 34.71786,37.16398,531.08 34.717670000000005,37.164260000000006,531.33 34.717270000000006,37.16469,533.73 34.71703,37.164970000000004,531.63 34.71698,37.16518000000001,523.54 34.717200000000005,37.16557,496.54 34.717040000000004,37.165690000000005,489.47 34.71672,37.165530000000004,504.73 34.71623,37.165380000000006,517.0100000000001 34.71585,37.1653,525.2800000000001 34.71558,37.16528,526.02 34.71528,37.16536,521.22 34.714650000000006,37.16536,533.72 34.7143,37.16545,539.0 34.71396,37.16566,542.66 34.713570000000004,37.16586,546.36 34.713300000000004,37.165960000000005,551.3800000000001 34.71273,37.16604,572.45 34.71244,37.166050000000006,579.1400000000001 34.71231,37.166160000000005,580.7500000000001 34.71229,37.166610000000006,585.71 34.71238,37.166830000000004,576.0 34.712450000000004,37.16714,577.4 34.71273,37.16747,563.34 34.713010000000004,37.167640000000006,551.44 34.71332,37.1677,534.2300000000001 34.713080000000005,37.167570000000005,542.97 34.71291,37.16736,547.4100000000001 34.712900000000005,37.16707,539.58 34.712830000000004,37.16668,544.5300000000001 34.712830000000004,37.16658,546.49 34.7136,37.166410000000006,513.0100000000001 34.71318,37.166720000000005,523.23 34.713420000000006,37.16691,509.4700000000001 34.71396,37.16715000000001,493.11 34.71419,37.166830000000004,484.65000000000003 34.71434,37.16668,481.47 34.71466,37.16673,471.71000000000004 34.714960000000005,37.16684,464.35 34.715340000000005,37.16648,456.72 34.71549,37.166230000000006,460.19000000000005 34.71578,37.166070000000005,463.34000000000003 34.71631,37.16619,458.93000000000006 34.716710000000006,37.16657,444.27000000000004 34.71719,37.16653,445.05000000000007 34.717470000000006,37.166540000000005,444.8 34.71763,37.166500000000006,446.74 34.717870000000005,37.166000000000004,463.76000000000005 34.71804,37.165690000000005,474.80000000000007 34.717890000000004,37.16519,499.68000000000006 34.717940000000006,37.16487,508.09000000000003 34.718300000000006,37.16471000000001,501.02000000000004 34.718650000000004,37.164880000000004,485.89000000000004 34.71905,37.16467,477.63000000000005 34.719390000000004,37.164410000000004,469.80000000000007 34.71951,37.16438,465.38 34.720200000000006,37.16368000000001,448.3 34.720490000000005,37.163920000000005,439.66 34.720400000000005,37.16414,439.87 34.720290000000006,37.164530000000006,441.08000000000004 34.72014,37.164970000000004,440.34 34.72012,37.165560000000006,436.05 34.72025,37.165620000000004,435.32000000000005 34.72037000070628,37.165140000283834,437.96 34.720490000000005,37.164660000000005,437.96 34.720870000000005,37.16433,436.79 34.721210000000006,37.16395,439.18 34.72126,37.163450000000005,439.83000000000004 34.721410000000006,37.1629,439.65000000000003 34.72167,37.16223,436.72 34.722100000000005,37.16176,433.91 34.72252,37.161350000000006,429.95000000000005 34.722730000000006,37.160900000000005,431.83000000000004 34.72294,37.160700000000006,431.83000000000004 34.72325,37.16046,432.28000000000003 34.72375,37.16033,431.56000000000006 34.724250000000005,37.16044,429.25 34.72474000250501,37.160040001080326,432.86 34.72523,37.15964,432.86 34.72547,37.15957,431.89000000000004 34.72605,37.159290000000006,430.67 34.72643,37.15923,428.93 34.72702,37.159000000000006,432.40000000000003 34.72713,37.158640000000005,432.83000000000004 34.727160000000005,37.15804,437.8 34.72726,37.15749,440.02000000000004 34.727160000000005,37.156850000000006,447.45 34.72699,37.156650000000006,452.78000000000003 34.726850000000006,37.15598,456.96000000000004 34.726560000000006,37.155800000000006,464.37000000000006 34.72665,37.15572,426.92 34.72673,37.15536,424.21000000000004 34.72684,37.15469,423.14 34.726980000000005,37.154250000000005,422.07000000000005 34.72744,37.15363,419.13000000000005 34.72795,37.1529,426.1 34.727880000000006,37.15278,429.66 34.72753,37.152640000000005,432.46 34.72757,37.15252,432.20000000000005 34.727610000000006,37.15249,432.06000000000006 34.72789,37.152530000000006,430.40000000000003 34.72834,37.15251000000001,429.51000000000005 34.728550000000006,37.15247,430.45000000000005 34.72869,37.1524,432.08 34.72917,37.15169,433.84000000000003 34.72932,37.150870000000005,430.05 34.729580000000006,37.150420000000004,430.54 34.73013,37.14994,432.98 34.73059,37.14925,440.93 34.73138,37.14876,437.55000000000007 34.731440000000006,37.1486,437.76000000000005 34.731770000000004,37.14804,442.82000000000005 34.73218,37.147780000000004,447.96000000000004 34.73284,37.147690000000004,456.57000000000005 34.73321,37.14744,462.73 34.73331,37.14723,466.02000000000004 34.7334,37.146910000000005,470.0 34.73386,37.14674,471.58000000000004 34.734010000000005,37.146640000000005,473.53000000000003 34.734100000000005,37.14674,460.32000000000005 34.7342,37.14705,450.89 34.73438,37.14715,447.35 34.73508,37.14748,438.03000000000003 34.73552,37.147450000000006,436.39000000000004 34.73566,37.147400000000005,436.50000000000006 34.735850000000006,37.14762,432.51000000000005 34.735980000000005,37.1477,430.94000000000005 34.73612,37.14759,432.76000000000005 34.736230000000006,37.14768,431.37 34.7363,37.147780000000004,430.28000000000003 34.73648,37.14775,430.75 34.736850000000004,37.147800000000004,431.02 34.737080000000006,37.14788,430.62000000000006 34.737260000000006,37.14799,429.24 34.737730000000006,37.148030000000006,428.35 34.73814,37.14804,426.54 34.73872,37.14797,425.14 34.73895,37.14737,437.00000000000006 34.73901,37.147540000000006,431.65000000000003 34.73989,37.146980000000006,434.00000000000006 34.74006,37.14665,439.75 34.74038,37.146570000000004,435.72 34.7406,37.14643,434.15000000000003 34.74062,37.146190000000004,437.69 34.74043,37.14613000000001,443.64000000000004 34.740100000000005,37.14613000000001,450.82000000000005 34.740100000000005,37.146060000000006,454.58000000000004 34.7398,37.145630000000004,447.88000000000005 34.739830000000005,37.14547,446.78000000000003 34.739940000000004,37.1454,445.3 34.740170000000006,37.145340000000004,444.44000000000005 34.74058,37.145340000000004,439.77000000000004 34.74085,37.14529,438.83000000000004 34.74139,37.14515,434.38000000000005 34.741510000000005,37.145140000000005,433.59000000000003 34.741670000000006,37.145210000000006,432.31 34.741780000000006,37.145430000000005,429.68000000000006 34.741780000000006,37.14605,419.98 34.74181,37.14627,419.05 34.742049998063074,37.146875000198946,416.01000000000005 34.742290000000004,37.14748,418.87                             
                        </coordinates>
                    </LineString>
                </Placemark>
                                        
        </Folder>
                
        <LookAt>
            <longitude>34.721955</longitude>            
            <latitude>37.175665</latitude>             
            <altitude>0</altitude>               
            <heading>0</heading>               
            <tilt>45</tilt>
            <range>5039</range>                    
            <altitudeMode>clampToGround</altitudeMode> 
        </LookAt>
    </Document>
</kml>