<?xml version="1.0" encoding="UTF-8"?>
<gpx creator="https://gpx.studio" version="1.1" xmlns="http://www.topografix.com/GPX/1/1" xmlns:xsi="http://www.w3.org/2001/XMLSchema-instance" xsi:schemaLocation="http://www.topografix.com/GPX/1/1 http://www.topografix.com/GPX/1/1/gpx.xsd http://www.garmin.com/xmlschemas/GpxExtensions/v3 http://www.garmin.com/xmlschemas/GpxExtensionsv3.xsd http://www.garmin.com/xmlschemas/TrackPointExtension/v1 http://www.garmin.com/xmlschemas/TrackPointExtensionv1.xsd http://www.garmin.com/xmlschemas/PowerExtension/v1 http://www.garmin.com/xmlschemas/PowerExtensionv1.xsd http://www.topografix.com/GPX/gpx_style/0/2 http://www.topografix.com/GPX/gpx_style/0/2/gpx_style.xsd" xmlns:gpxtpx="http://www.garmin.com/xmlschemas/TrackPointExtension/v1" xmlns:gpxx="http://www.garmin.com/xmlschemas/GpxExtensions/v3" xmlns:gpxpx="http://www.garmin.com/xmlschemas/PowerExtension/v1" xmlns:gpx_style="http://www.topografix.com/GPX/gpx_style/0/2">
  <metadata>
    <name>8K Kadıncık Discovery Run</name>
    <author>
      <name>gpx.studio</name>
      <link href="https://gpx.studio"/>
    </author>
  </metadata>
  <trk>
    <name>8K Kadıncık Discovery Run</name>
    <trkseg>
      <trkpt lat="37.14895325916598" lon="34.74305858047629">
        <ele>433.43304935815223</ele>
      </trkpt>
      <trkpt lat="37.1489369654703" lon="34.74292366307262">
        <ele>433.21644639658024</ele>
      </trkpt>
      <trkpt lat="37.14888808436221" lon="34.74261294420529">
        <ele>432.56036219792287</ele>
      </trkpt>
      <trkpt lat="37.14887830813656" lon="34.742506645644426">
        <ele>432.40942240404013</ele>
      </trkpt>
      <trkpt lat="37.148829426990545" lon="34.74244123114519">
        <ele>431.83305845414384</ele>
      </trkpt>
      <trkpt lat="37.14874795834365" lon="34.742334932585976">
        <ele>430.3768531103387</ele>
      </trkpt>
      <trkpt lat="37.148679524612575" lon="34.74227769490034">
        <ele>429.2540283923539</ele>
      </trkpt>
      <trkpt lat="37.148594797050194" lon="34.7421959267771">
        <ele>427.81420715074114</ele>
      </trkpt>
      <trkpt lat="37.14853939820823" lon="34.742134600684665">
        <ele>426.9234628697162</ele>
      </trkpt>
      <trkpt lat="37.14838623649173" lon="34.742089628216206">
        <ele>424.5198502591809</ele>
      </trkpt>
      <trkpt lat="37.148278697229514" lon="34.74204874415463">
        <ele>422.83172505907817</ele>
      </trkpt>
      <trkpt lat="37.148203745531504" lon="34.74192200356296">
        <ele>421.8537039802653</ele>
      </trkpt>
      <trkpt lat="37.14809620600978" lon="34.74181570500369">
        <ele>420.3123217927765</ele>
      </trkpt>
      <trkpt lat="37.14804080680193" lon="34.74174620209928">
        <ele>419.9150193821961</ele>
      </trkpt>
      <trkpt lat="37.147923490697764" lon="34.74180343978125">
        <ele>419.2815213458624</ele>
      </trkpt>
      <trkpt lat="37.14789416164358" lon="34.7418525006548">
        <ele>419.0385910868656</ele>
      </trkpt>
      <trkpt lat="37.147786621680936" lon="34.742003771682505">
        <ele>418.2715316159243</ele>
      </trkpt>
      <trkpt lat="37.147636717236" lon="34.74221228039741">
        <ele>417.0713323172656</ele>
      </trkpt>
      <trkpt lat="37.14752591810786" lon="34.74231449055145">
        <ele>416.2498577980333</ele>
      </trkpt>
      <trkpt lat="37.14733690846212" lon="34.74228996161111">
        <ele>415.37446647055805</ele>
      </trkpt>
      <trkpt lat="37.14723262652062" lon="34.7422490775495">
        <ele>415.4705076657242</ele>
      </trkpt>
      <trkpt lat="37.146988215156185" lon="34.74213869058343">
        <ele>417.03637512467344</ele>
      </trkpt>
      <trkpt lat="37.1468122384846" lon="34.742093718115">
        <ele>418.07063326593567</ele>
      </trkpt>
      <trkpt lat="37.14663626140418" lon="34.74199559636776">
        <ele>419.45768950252614</ele>
      </trkpt>
      <trkpt lat="37.146404883508126" lon="34.74187703258974">
        <ele>422.13491283260583</ele>
      </trkpt>
      <trkpt lat="37.146264752888584" lon="34.74179935287168">
        <ele>424.28912688919814</ele>
      </trkpt>
      <trkpt lat="37.14614417517136" lon="34.74177891084088">
        <ele>425.8281274158394</ele>
      </trkpt>
      <trkpt lat="37.14592772396209" lon="34.74176867285689">
        <ele>428.5281144379662</ele>
      </trkpt>
      <trkpt lat="37.1457321915601" lon="34.74176867285689">
        <ele>431.12680556461225</ele>
      </trkpt>
      <trkpt lat="37.14561161299386" lon="34.74179320329455">
        <ele>433.93254275701526</ele>
      </trkpt>
      <trkpt lat="37.145422597556546" lon="34.74177276126372">
        <ele>438.8251672746788</ele>
      </trkpt>
      <trkpt lat="37.1452661706311" lon="34.74170325835928">
        <ele>443.1356096986283</ele>
      </trkpt>
      <trkpt lat="37.1451488502245" lon="34.74160104820521">
        <ele>446.9309238888801</ele>
      </trkpt>
      <trkpt lat="37.14508367214219" lon="34.74152336848721">
        <ele>449.2801653243715</ele>
      </trkpt>
      <trkpt lat="37.14506085979971" lon="34.74135983224235">
        <ele>451.26559196198485</ele>
      </trkpt>
      <trkpt lat="37.14510648447717" lon="34.741175853965075">
        <ele>451.7140874724291</ele>
      </trkpt>
      <trkpt lat="37.14512929680522" lon="34.74106137859215">
        <ele>452.1467219032177</ele>
      </trkpt>
      <trkpt lat="37.145187957046716" lon="34.740881488720106">
        <ele>452.31183605464247</ele>
      </trkpt>
      <trkpt lat="37.14522706384871" lon="34.74076292494206">
        <ele>452.4417607951918</ele>
      </trkpt>
      <trkpt lat="37.145246617242776" lon="34.74062391913321">
        <ele>453.43005537570025</ele>
      </trkpt>
      <trkpt lat="37.145272688425905" lon="34.74054623941515">
        <ele>453.76348908515683</ele>
      </trkpt>
      <trkpt lat="37.145272688425905" lon="34.74035817273267">
        <ele>455.91908032223614</ele>
      </trkpt>
      <trkpt lat="37.1452629117335" lon="34.74011286836296">
        <ele>458.91138006998233</ele>
      </trkpt>
      <trkpt lat="37.14533786634534" lon="34.739875740805246">
        <ele>460.56863672803564</ele>
      </trkpt>
      <trkpt lat="37.14546496312687" lon="34.73974491180837">
        <ele>460.45563603051005</ele>
      </trkpt>
      <trkpt lat="37.1455822830431" lon="34.73974491180837">
        <ele>458.80872078242345</ele>
      </trkpt>
      <trkpt lat="37.145755003700145" lon="34.739830768336844">
        <ele>455.2848445790221</ele>
      </trkpt>
      <trkpt lat="37.14595379491105" lon="34.73999430458332">
        <ele>452.1909061932008</ele>
      </trkpt>
      <trkpt lat="37.14599616018319" lon="34.74008833792536">
        <ele>450.4613255458748</ele>
      </trkpt>
      <trkpt lat="37.14606459634241" lon="34.74023143214103">
        <ele>447.6161104072184</ele>
      </trkpt>
      <trkpt lat="37.14615258559951" lon="34.74042767563708">
        <ele>443.6043720741759</ele>
      </trkpt>
      <trkpt lat="37.14619820961839" lon="34.74054623941515">
        <ele>441.1507983671725</ele>
      </trkpt>
      <trkpt lat="37.14624709246439" lon="34.74064027275719">
        <ele>439.01396335852434</ele>
      </trkpt>
      <trkpt lat="37.14635137576542" lon="34.74066071478802">
        <ele>438.0061493155549</ele>
      </trkpt>
      <trkpt lat="37.14640025851314" lon="34.74062800753839">
        <ele>438.3961041845387</ele>
      </trkpt>
      <trkpt lat="37.14648172968904" lon="34.74051762057235">
        <ele>440.2830655123642</ele>
      </trkpt>
      <trkpt lat="37.14654364772423" lon="34.740349995920695">
        <ele>443.35449745846057</ele>
      </trkpt>
      <trkpt lat="37.14658275382526" lon="34.740272316202635">
        <ele>444.6779598293733</ele>
      </trkpt>
      <trkpt lat="37.146631636423365" lon="34.74011286836296">
        <ele>447.5603591374832</ele>
      </trkpt>
      <trkpt lat="37.146726142690284" lon="34.73999839299012">
        <ele>448.9941240073421</ele>
      </trkpt>
      <trkpt lat="37.14675560663852" lon="34.73990856555696">
        <ele>450.5764759378518</ele>
      </trkpt>
      <trkpt lat="37.146820783280035" lon="34.739745029310484">
        <ele>453.1488250700526</ele>
      </trkpt>
      <trkpt lat="37.14687944220901" lon="34.739561051033235">
        <ele>454.96205197197077</ele>
      </trkpt>
      <trkpt lat="37.14695113639456" lon="34.739438398848336">
        <ele>455.6780688632688</ele>
      </trkpt>
      <trkpt lat="37.14702934815561" lon="34.73931165825829">
        <ele>456.3625897204358</ele>
      </trkpt>
      <trkpt lat="37.147172736173346" lon="34.739246243759055">
        <ele>455.54780494056183</ele>
      </trkpt>
      <trkpt lat="37.147257465328934" lon="34.739164475635874">
        <ele>455.4766407510273</ele>
      </trkpt>
      <trkpt lat="37.147338935581445" lon="34.73907044229381">
        <ele>454.9385007156992</ele>
      </trkpt>
      <trkpt lat="37.14738455888467" lon="34.7390009393894">
        <ele>454.4812202193778</ele>
      </trkpt>
      <trkpt lat="37.147417146941436" lon="34.738939613296935">
        <ele>454.24712279662526</ele>
      </trkpt>
      <trkpt lat="37.1474399585732" lon="34.73887419879935">
        <ele>454.3423895420511</ele>
      </trkpt>
      <trkpt lat="37.14746928780295" lon="34.73874336980083">
        <ele>454.80192304936406</ele>
      </trkpt>
      <trkpt lat="37.147505134553526" lon="34.73876381393319">
        <ele>453.68131268697414</ele>
      </trkpt>
      <trkpt lat="37.147560534153115" lon="34.7388455820564">
        <ele>451.29268671090335</ele>
      </trkpt>
      <trkpt lat="37.147586604538645" lon="34.738919173367606">
        <ele>449.7226527498114</ele>
      </trkpt>
      <trkpt lat="37.147700662371165" lon="34.73895596902247">
        <ele>446.1335673014513</ele>
      </trkpt>
      <trkpt lat="37.14774628545615" lon="34.73894779221047">
        <ele>444.9545509907418</ele>
      </trkpt>
      <trkpt lat="37.14785382547613" lon="34.73891508496084">
        <ele>442.26163328247964</ele>
      </trkpt>
      <trkpt lat="37.147925518737395" lon="34.73888237771121">
        <ele>440.57962386801785</ele>
      </trkpt>
      <trkpt lat="37.147977659248426" lon="34.73872292987156">
        <ele>440.57717088907975</ele>
      </trkpt>
      <trkpt lat="37.14801024704961" lon="34.73855939362511">
        <ele>440.6801237262326</ele>
      </trkpt>
      <trkpt lat="37.14803305850248" lon="34.73842856462824">
        <ele>440.89724914315264</ele>
      </trkpt>
      <trkpt lat="37.14807542260992" lon="34.73826911678697">
        <ele>440.8287533884868</ele>
      </trkpt>
      <trkpt lat="37.148081940163266" lon="34.738072873292424">
        <ele>441.91376962065726</ele>
      </trkpt>
      <trkpt lat="37.14805586994784" lon="34.73783574573477">
        <ele>444.02766697695563</ele>
      </trkpt>
      <trkpt lat="37.14801676460857" lon="34.73762314861466">
        <ele>443.9659157137393</ele>
      </trkpt>
      <trkpt lat="37.14797148524028" lon="34.73744518388821">
        <ele>443.8808051982905</ele>
      </trkpt>
      <trkpt lat="37.147974744021155" lon="34.73728573604697">
        <ele>442.7482184261902</ele>
      </trkpt>
      <trkpt lat="37.14792260350812" lon="34.73708540414563">
        <ele>442.6777818516979</ele>
      </trkpt>
      <trkpt lat="37.147857427816135" lon="34.73689324905638">
        <ele>442.9777979573304</ele>
      </trkpt>
      <trkpt lat="37.14782158116172" lon="34.73682374615032">
        <ele>443.31919390856757</ele>
      </trkpt>
      <trkpt lat="37.147772699332705" lon="34.736582530187405">
        <ele>442.4210007188534</ele>
      </trkpt>
      <trkpt lat="37.14775966417281" lon="34.73650076206417">
        <ele>442.0210073785006</ele>
      </trkpt>
      <trkpt lat="37.14778899327918" lon="34.73640672872213">
        <ele>440.49052635633757</ele>
      </trkpt>
      <trkpt lat="37.14780202843404" lon="34.73633313741249">
        <ele>439.5253900102816</ele>
      </trkpt>
      <trkpt lat="37.14778573449033" lon="34.736210485227645">
        <ele>438.8484679947153</ele>
      </trkpt>
      <trkpt lat="37.147704264719096" lon="34.73622683885165">
        <ele>441.0115106678275</ele>
      </trkpt>
      <trkpt lat="37.14766515919737" lon="34.73620639682082">
        <ele>441.7936040681633</ele>
      </trkpt>
      <trkpt lat="37.14764560642922" lon="34.73612871710441">
        <ele>441.6451057221281</ele>
      </trkpt>
      <trkpt lat="37.147661900403165" lon="34.736087833042774">
        <ele>440.88238339969007</ele>
      </trkpt>
      <trkpt lat="37.14768797075433" lon="34.736042860574344">
        <ele>439.8153955817463</ele>
      </trkpt>
      <trkpt lat="37.147678194373526" lon="34.73591611998273">
        <ele>439.0259480758575</ele>
      </trkpt>
      <trkpt lat="37.14763257124811" lon="34.73587523592107">
        <ele>439.87382230130066</ele>
      </trkpt>
      <trkpt lat="37.1475543601109" lon="34.73580164461143">
        <ele>441.93028854758376</ele>
      </trkpt>
      <trkpt lat="37.14743704325218" lon="34.73567899236028">
        <ele>445.3398806604102</ele>
      </trkpt>
      <trkpt lat="37.14744681966414" lon="34.735646285110676">
        <ele>445.2255605338152</ele>
      </trkpt>
      <trkpt lat="37.147463113680885" lon="34.7355399865514">
        <ele>445.2787261443217</ele>
      </trkpt>
      <trkpt lat="37.147495701692776" lon="34.73532330079382">
        <ele>445.38480713344245</ele>
      </trkpt>
      <trkpt lat="37.14749244289055" lon="34.735184294984975">
        <ele>446.02696824253195</ele>
      </trkpt>
      <trkpt lat="37.14746963127527" lon="34.7350330239573">
        <ele>447.1666676622391</ele>
      </trkpt>
      <trkpt lat="37.14742726682789" lon="34.734979874676895">
        <ele>448.2377373892607</ele>
      </trkpt>
      <trkpt lat="37.14737838474399" lon="34.7348204268356">
        <ele>450.0905986387762</ele>
      </trkpt>
      <trkpt lat="37.14731115827534" lon="34.73473676858464">
        <ele>452.11466837999853</ele>
      </trkpt>
      <trkpt lat="37.147219911552895" lon="34.73452008305932">
        <ele>455.3206375684272</ele>
      </trkpt>
      <trkpt lat="37.14718406459629" lon="34.73450781784052">
        <ele>456.0233257198214</ele>
      </trkpt>
      <trkpt lat="37.14714169998891" lon="34.73441787290528">
        <ele>457.4989627809269</ele>
      </trkpt>
      <trkpt lat="37.14714169998891" lon="34.734291132313615">
        <ele>458.6093715493338</ele>
      </trkpt>
      <trkpt lat="37.147112370631504" lon="34.73421754100244">
        <ele>459.8492162013168</ele>
      </trkpt>
      <trkpt lat="37.14700808838042" lon="34.73418074534757">
        <ele>462.20228780762716</ele>
      </trkpt>
      <trkpt lat="37.14688425302056" lon="34.7341357728792">
        <ele>465.08299728410867</ele>
      </trkpt>
      <trkpt lat="37.14678648811926" lon="34.73413168447394">
        <ele>467.13040520921464</ele>
      </trkpt>
      <trkpt lat="37.146685464254546" lon="34.734111242443134">
        <ele>469.3631608434961</ele>
      </trkpt>
      <trkpt lat="37.14664309936856" lon="34.73407035838159">
        <ele>470.7540556535131</ele>
      </trkpt>
      <trkpt lat="37.14663984053027" lon="34.73398041344467">
        <ele>471.96757492087994</ele>
      </trkpt>
      <trkpt lat="37.146662652395904" lon="34.733914998947085">
        <ele>472.5839731849277</ele>
      </trkpt>
      <trkpt lat="37.146718052612584" lon="34.733804611981014">
        <ele>473.9343853359582</ele>
      </trkpt>
      <trkpt lat="37.14679626461465" lon="34.73366560617055">
        <ele>475.63605694966486</ele>
      </trkpt>
      <trkpt lat="37.14689402950334" lon="34.7335061583309">
        <ele>477.4005273458263</ele>
      </trkpt>
      <trkpt lat="37.1469983119117" lon="34.73341212498883">
        <ele>477.4080188407331</ele>
      </trkpt>
      <trkpt lat="37.147112370631504" lon="34.733285384398755">
        <ele>478.0081994583139</ele>
      </trkpt>
      <trkpt lat="37.14733071112995" lon="34.73325267714918">
        <ele>473.7820872259558</ele>
      </trkpt>
      <trkpt lat="37.14745454575879" lon="34.73320361627552">
        <ele>471.8253244263822</ele>
      </trkpt>
      <trkpt lat="37.14756534499216" lon="34.733023726403445">
        <ele>472.8525412015828</ele>
      </trkpt>
      <trkpt lat="37.14762075358608" lon="34.73277025077749">
        <ele>478.21825750586686</ele>
      </trkpt>
      <trkpt lat="37.147692447068906" lon="34.732345056537355">
        <ele>488.51513643437175</ele>
      </trkpt>
      <trkpt lat="37.1477511053218" lon="34.73220196232171">
        <ele>490.6803605387365</ele>
      </trkpt>
      <trkpt lat="37.14780324595307" lon="34.73198936519992">
        <ele>494.897157669413</ele>
      </trkpt>
      <trkpt lat="37.14788797440292" lon="34.731756326049066">
        <ele>500.02120972424126</ele>
      </trkpt>
      <trkpt lat="37.148041137014985" lon="34.731621409993096">
        <ele>499.7376779044988</ele>
      </trkpt>
      <trkpt lat="37.14841915432831" lon="34.731445608527736">
        <ele>482.73031375822706</ele>
      </trkpt>
      <trkpt lat="37.14874177105774" lon="34.731261630250486">
        <ele>467.15647194869047</ele>
      </trkpt>
      <trkpt lat="37.14896336559033" lon="34.73113080125361">
        <ele>457.8635281481688</ele>
      </trkpt>
      <trkpt lat="37.14898943549224" lon="34.730901850507905">
        <ele>461.52882708640044</ele>
      </trkpt>
      <trkpt lat="37.14891448449933" lon="34.73054615917215">
        <ele>473.70376713074126</ele>
      </trkpt>
      <trkpt lat="37.14902528159374" lon="34.73035400408287">
        <ele>472.4997218510388</ele>
      </trkpt>
      <trkpt lat="37.14908393881282" lon="34.73027223595963">
        <ele>471.5643230760716</ele>
      </trkpt>
      <trkpt lat="37.14926316892385" lon="34.730280412771634">
        <ele>462.4634852395591</ele>
      </trkpt>
      <trkpt lat="37.1494375505834" lon="34.73032528726958">
        <ele>452.5292240310717</ele>
      </trkpt>
      <trkpt lat="37.149724317215814" lon="34.730239430739545">
        <ele>444.5470131132321</ele>
      </trkpt>
      <trkpt lat="37.14984814792585" lon="34.730104513335846">
        <ele>446.0366968230045</ele>
      </trkpt>
      <trkpt lat="37.14999478929363" lon="34.729900093027766">
        <ele>449.04269082116</ele>
      </trkpt>
      <trkpt lat="37.15016424118646" lon="34.729756998812064">
        <ele>450.8201651736132</ele>
      </trkpt>
      <trkpt lat="37.15039560758099" lon="34.729585285753615">
        <ele>453.73535952237506</ele>
      </trkpt>
      <trkpt lat="37.15079642374454" lon="34.72946672197557">
        <ele>451.1915440461748</ele>
      </trkpt>
      <trkpt lat="37.151125547623295" lon="34.72931953935313">
        <ele>450.6207011955335</ele>
      </trkpt>
      <trkpt lat="37.15140410062172" lon="34.72924293592803">
        <ele>448.6968365084785</ele>
      </trkpt>
      <trkpt lat="37.15152141132474" lon="34.72924293592803">
        <ele>446.8124873853808</ele>
      </trkpt>
      <trkpt lat="37.151925379681224" lon="34.728995149216125">
        <ele>444.7432633711737</ele>
      </trkpt>
      <trkpt lat="37.15196132484071" lon="34.72897310112069">
        <ele>444.2753842588527</ele>
      </trkpt>
      <trkpt lat="37.15217313413872" lon="34.728830006905014">
        <ele>441.43532783163243</ele>
      </trkpt>
      <trkpt lat="37.1523099952165" lon="34.72873188515777">
        <ele>439.6070834141229</ele>
      </trkpt>
      <trkpt lat="37.152469666160556" lon="34.72853973006852">
        <ele>438.67773117884184</ele>
      </trkpt>
      <trkpt lat="37.15253157929247" lon="34.72843343150765">
        <ele>438.7972556814557</ele>
      </trkpt>
      <trkpt lat="37.1525609065481" lon="34.72819630394994">
        <ele>441.5266184927905</ele>
      </trkpt>
      <trkpt lat="37.15254787221362" lon="34.72800414886066">
        <ele>443.6957997366802</ele>
      </trkpt>
      <trkpt lat="37.15250876919717" lon="34.72770160680531">
        <ele>446.1969342811965</ele>
      </trkpt>
      <trkpt lat="37.15255113079728" lon="34.72754215896401">
        <ele>445.9930350285549</ele>
      </trkpt>
      <trkpt lat="37.15260652670095" lon="34.72754624737087">
        <ele>444.7155661406937</ele>
      </trkpt>
      <trkpt lat="37.1526716983" lon="34.72755442418284">
        <ele>443.16798130404277</ele>
      </trkpt>
      <trkpt lat="37.1527401284183" lon="34.72777519811655">
        <ele>440.5057752740581</ele>
      </trkpt>
      <trkpt lat="37.15282514052086" lon="34.72790090289584">
        <ele>438.0337185068529</ele>
      </trkpt>
      <trkpt lat="37.15295874185193" lon="34.72793361014544">
        <ele>434.975989683241</ele>
      </trkpt>
      <trkpt lat="37.15305800813841" lon="34.727895288351206">
        <ele>433.12568299745254</ele>
      </trkpt>
      <trkpt lat="37.1531705483566" lon="34.72785184202223">
        <ele>431.0279462064475</ele>
      </trkpt>
      <trkpt lat="37.153441008108075" lon="34.72753703474649">
        <ele>427.8721119759612</ele>
      </trkpt>
      <trkpt lat="37.1535876425085" lon="34.72742664778039">
        <ele>427.84468193445446</ele>
      </trkpt>
      <trkpt lat="37.15399208953227" lon="34.72718008950391">
        <ele>429.0193202987342</ele>
      </trkpt>
      <trkpt lat="37.15416440172419" lon="34.72707504485143">
        <ele>430.270127776452</ele>
      </trkpt>
      <trkpt lat="37.1545977727887" lon="34.72692456790823">
        <ele>436.4092350658968</ele>
      </trkpt>
      <trkpt lat="37.15503114385321" lon="34.72677409096502">
        <ele>444.27098002138865</ele>
      </trkpt>
      <trkpt lat="37.15504746163707" lon="34.72676842503475">
        <ele>444.5584544508804</ele>
      </trkpt>
      <trkpt lat="37.155495387584466" lon="34.72671892116789">
        <ele>447.2321863310026</ele>
      </trkpt>
      <trkpt lat="37.15567634491991" lon="34.72669892213034">
        <ele>448.3149164820335</ele>
      </trkpt>
      <trkpt lat="37.155849042522206" lon="34.726588535164296">
        <ele>452.24965429259595</ele>
      </trkpt>
      <trkpt lat="37.15591421132639" lon="34.72645770616745">
        <ele>456.34390332031074</ele>
      </trkpt>
      <trkpt lat="37.15636183683794" lon="34.726404094218196">
        <ele>455.27628612476474</ele>
      </trkpt>
      <trkpt lat="37.156809462349486" lon="34.72635048226895">
        <ele>453.8845099542333</ele>
      </trkpt>
      <trkpt lat="37.15725708786103" lon="34.72629687031969">
        <ele>452.17040263756763</ele>
      </trkpt>
      <trkpt lat="37.15734790940816" lon="34.72628599265511">
        <ele>451.74278044395555</ele>
      </trkpt>
      <trkpt lat="37.15778373727511" lon="34.726147126616965">
        <ele>450.8495142157004</ele>
      </trkpt>
      <trkpt lat="37.15821956514206" lon="34.726008260578816">
        <ele>450.4737904942275</ele>
      </trkpt>
      <trkpt lat="37.15829474371472" lon="34.72598430673986">
        <ele>450.3090476666307</ele>
      </trkpt>
      <trkpt lat="37.15829800205074" lon="34.72580032846261">
        <ele>454.50994197637795</ele>
      </trkpt>
      <trkpt lat="37.1583175520651" lon="34.725706295120574">
        <ele>456.5142446711977</ele>
      </trkpt>
      <trkpt lat="37.15834036040795" lon="34.72558773134091">
        <ele>458.985910517801</ele>
      </trkpt>
      <trkpt lat="37.15839575206945" lon="34.725546847279304">
        <ele>459.3671161623214</ele>
      </trkpt>
      <trkpt lat="37.158545635185874" lon="34.7255754661237">
        <ele>457.26645378307575</ele>
      </trkpt>
      <trkpt lat="37.158614059988636" lon="34.72558364293573">
        <ele>456.379855834752</ele>
      </trkpt>
      <trkpt lat="37.15876394267224" lon="34.72540375306522">
        <ele>458.96139207561566</ele>
      </trkpt>
      <trkpt lat="37.15890405012928" lon="34.72515844869551">
        <ele>462.68436417393445</ele>
      </trkpt>
      <trkpt lat="37.158988766140155" lon="34.72497447041823">
        <ele>464.2417987471502</ele>
      </trkpt>
      <trkpt lat="37.15907022375359" lon="34.72476187329653">
        <ele>466.2822620551104</ele>
      </trkpt>
      <trkpt lat="37.15906370714802" lon="34.72456562980207">
        <ele>470.5084243372088</ele>
      </trkpt>
      <trkpt lat="37.159112581678144" lon="34.724303971806705">
        <ele>474.4131904058629</ele>
      </trkpt>
      <trkpt lat="37.15917123107283" lon="34.724091374686594">
        <ele>476.17578929909564</ele>
      </trkpt>
      <trkpt lat="37.15923639701329" lon="34.72401778337539">
        <ele>475.1392340573489</ele>
      </trkpt>
      <trkpt lat="37.159329034765946" lon="34.72389402341639">
        <ele>474.0167681165983</ele>
      </trkpt>
      <trkpt lat="37.15947166499927" lon="34.723816631724134">
        <ele>470.83835116690136</ele>
      </trkpt>
      <trkpt lat="37.15944853579063" lon="34.723705381165985">
        <ele>472.94038933175636</ele>
      </trkpt>
      <trkpt lat="37.15926735674387" lon="34.72355543476212">
        <ele>480.2594533669308</ele>
      </trkpt>
      <trkpt lat="37.15931747014031" lon="34.72349739099326">
        <ele>479.49868286948316</ele>
      </trkpt>
      <trkpt lat="37.1592286454044" lon="34.7233424034315">
        <ele>484.121498636436</ele>
      </trkpt>
      <trkpt lat="37.15917467706586" lon="34.72314892420056">
        <ele>488.44723460203295</ele>
      </trkpt>
      <trkpt lat="37.159143837998556" lon="34.72285870535404">
        <ele>493.7380909592992</ele>
      </trkpt>
      <trkpt lat="37.159147692882556" lon="34.722771639699744">
        <ele>494.92833107585466</ele>
      </trkpt>
      <trkpt lat="37.159170822183256" lon="34.72265555216097">
        <ele>495.7386812303221</ele>
      </trkpt>
      <trkpt lat="37.15945608297858" lon="34.722495931796004">
        <ele>486.2378726726058</ele>
      </trkpt>
      <trkpt lat="37.15963340671399" lon="34.72241370312318">
        <ele>479.50431875716987</ele>
      </trkpt>
      <trkpt lat="37.15991095607339" lon="34.72234114841157">
        <ele>471.85331730397604</ele>
      </trkpt>
      <trkpt lat="37.16009598841403" lon="34.722292778603816">
        <ele>467.20403242348794</ele>
      </trkpt>
      <trkpt lat="37.16013453676125" lon="34.72239919218049">
        <ele>465.2654235029599</ele>
      </trkpt>
      <trkpt lat="37.160176939920376" lon="34.722471746892126">
        <ele>463.48417434834425</ele>
      </trkpt>
      <trkpt lat="37.16021934305567" lon="34.72267973706485">
        <ele>460.3904976305747</ele>
      </trkpt>
      <trkpt lat="37.16021934305567" lon="34.72275229177646">
        <ele>459.7335939522843</ele>
      </trkpt>
      <trkpt lat="37.160203923736304" lon="34.72289256421908">
        <ele>458.87828752712755</ele>
      </trkpt>
      <trkpt lat="37.16011140775544" lon="34.72297962987341">
        <ele>460.87395234339795</ele>
      </trkpt>
      <trkpt lat="37.16003045617896" lon="34.72304734760442">
        <ele>462.7212756339048</ele>
      </trkpt>
      <trkpt lat="37.15999576261939" lon="34.723168272123786">
        <ele>462.7857249463914</ele>
      </trkpt>
      <trkpt lat="37.16006514972179" lon="34.72328919664221">
        <ele>459.4128865984509</ele>
      </trkpt>
      <trkpt lat="37.16011140775544" lon="34.723371425315975">
        <ele>456.8789996998628</ele>
      </trkpt>
      <trkpt lat="37.160165375424455" lon="34.72358425247023">
        <ele>452.34827847980375</ele>
      </trkpt>
      <trkpt lat="37.160200068906164" lon="34.72365197020028">
        <ele>450.3308225922523</ele>
      </trkpt>
      <trkpt lat="37.1602270527146" lon="34.72380675358568">
        <ele>447.37314408212023</ele>
      </trkpt>
      <trkpt lat="37.160281020301014" lon="34.7238502864119">
        <ele>445.08609778279936</ele>
      </trkpt>
      <trkpt lat="37.16032727820259" lon="34.72379707962352">
        <ele>442.5300458224493</ele>
      </trkpt>
      <trkpt lat="37.160357998595615" lon="34.7237107328225">
        <ele>443.7372615989308</ele>
      </trkpt>
      <trkpt lat="37.16037341788281" lon="34.72347855774498">
        <ele>446.8833044534557</ele>
      </trkpt>
      <trkpt lat="37.16043894982137" lon="34.72327056757226">
        <ele>448.12124227164463</ele>
      </trkpt>
      <trkpt lat="37.1604813528097" lon="34.7231448060723">
        <ele>448.25934326490403</ele>
      </trkpt>
      <trkpt lat="37.16062012606015" lon="34.7229803487258">
        <ele>446.02912764987065</ele>
      </trkpt>
      <trkpt lat="37.16069722220038" lon="34.722835239302526">
        <ele>445.24442795335864</ele>
      </trkpt>
      <trkpt lat="37.16080130186468" lon="34.722632086110394">
        <ele>444.2382647566512</ele>
      </trkpt>
      <trkpt lat="37.16095549369696" lon="34.72250148762896">
        <ele>441.0471379838891</ele>
      </trkpt>
      <trkpt lat="37.16105957300644" lon="34.722467628763894">
        <ele>438.4058194802615</ele>
      </trkpt>
      <trkpt lat="37.1611867808557" lon="34.722433769898856">
        <ele>435.0157237048266</ele>
      </trkpt>
      <trkpt lat="37.16122532864668" lon="34.72248697668715">
        <ele>433.7937601541639</ele>
      </trkpt>
      <trkpt lat="37.16115594260923" lon="34.72271431478319">
        <ele>433.3983941792047</ele>
      </trkpt>
      <trkpt lat="37.161071137364814" lon="34.72279654345596">
        <ele>435.01888937186465</ele>
      </trkpt>
      <trkpt lat="37.160990186816036" lon="34.723091599283975">
        <ele>434.61733065676003</ele>
      </trkpt>
      <trkpt lat="37.160809011432534" lon="34.72358013441092">
        <ele>435.0562042899444</ele>
      </trkpt>
      <trkpt lat="37.16081488882397" lon="34.724144317382525">
        <ele>429.5915762425688</ele>
      </trkpt>
      <trkpt lat="37.160816721007876" lon="34.724320192509026">
        <ele>428.3504329280279</ele>
      </trkpt>
      <trkpt lat="37.16083984979794" lon="34.72459106343217">
        <ele>426.6929149122687</ele>
      </trkpt>
      <trkpt lat="37.160762753803155" lon="34.72513764226011">
        <ele>424.0038399440088</ele>
      </trkpt>
      <trkpt lat="37.1605892875274" lon="34.7252730777212">
        <ele>424.0006969503131</ele>
      </trkpt>
      <trkpt lat="37.16048788742346" lon="34.72554255354146">
        <ele>425.00830480800965</ele>
      </trkpt>
      <trkpt lat="37.160198775691455" lon="34.72576505465781">
        <ele>428.07007319423826</ele>
      </trkpt>
      <trkpt lat="37.159952066138985" lon="34.725934348984936">
        <ele>429.30440852036963</ele>
      </trkpt>
      <trkpt lat="37.15975161403517" lon="34.726060110484866">
        <ele>429.1216703432408</ele>
      </trkpt>
      <trkpt lat="37.15956272598896" lon="34.726403536119676">
        <ele>432.5474976538093</ele>
      </trkpt>
      <trkpt lat="37.15937383747075" lon="34.72658250440796">
        <ele>435.79758543755594</ele>
      </trkpt>
      <trkpt lat="37.15911960858237" lon="34.72678656104526">
        <ele>438.1077932477033</ele>
      </trkpt>
      <trkpt lat="37.15867477129035" lon="34.72686897466455">
        <ele>439.22595277703334</ele>
      </trkpt>
      <trkpt lat="37.15854522845403" lon="34.72689297466226">
        <ele>439.3715741638745</ele>
      </trkpt>
      <trkpt lat="37.15809824785386" lon="34.726954481737685">
        <ele>439.5897735742396</ele>
      </trkpt>
      <trkpt lat="37.157947716812146" lon="34.72697519566606">
        <ele>439.4139692140743</ele>
      </trkpt>
      <trkpt lat="37.15749864294817" lon="34.72694640512081">
        <ele>439.9637832026199</ele>
      </trkpt>
      <trkpt lat="37.15741958746813" lon="34.72694133680008">
        <ele>440.1126803922016</ele>
      </trkpt>
      <trkpt lat="37.15697059266185" lon="34.726972014499296">
        <ele>439.16165599561685</ele>
      </trkpt>
      <trkpt lat="37.15664087962911" lon="34.72699454223704">
        <ele>438.1552482473903</ele>
      </trkpt>
      <trkpt lat="37.15619180945167" lon="34.726965646983516">
        <ele>439.01809245906844</ele>
      </trkpt>
      <trkpt lat="37.156039495382686" lon="34.726955846391405">
        <ele>439.4600130715911</ele>
      </trkpt>
      <trkpt lat="37.15567712051477" lon="34.726917150544836">
        <ele>440.68841434726613</ele>
      </trkpt>
      <trkpt lat="37.15523822794879" lon="34.727039875965396">
        <ele>435.6414721353771</ele>
      </trkpt>
      <trkpt lat="37.15522737751114" lon="34.72704291002117">
        <ele>435.5104936762875</ele>
      </trkpt>
      <trkpt lat="37.1547878966619" lon="34.72713964963663">
        <ele>431.7015033997601</ele>
      </trkpt>
      <trkpt lat="37.15436131181222" lon="34.7273180602717">
        <ele>428.34113035431045</ele>
      </trkpt>
      <trkpt lat="37.15429058630512" lon="34.72734763980938">
        <ele>427.70976115451276</ele>
      </trkpt>
      <trkpt lat="37.15385443797415" lon="34.72748490766896">
        <ele>427.0319959179975</ele>
      </trkpt>
      <trkpt lat="37.15362072692474" lon="34.72755846295561">
        <ele>426.8212883919484</ele>
      </trkpt>
      <trkpt lat="37.15352049254474" lon="34.72760199578275">
        <ele>426.5476974548317</ele>
      </trkpt>
      <trkpt lat="37.15334315439597" lon="34.72776161779595">
        <ele>428.09421015298017</ele>
      </trkpt>
      <trkpt lat="37.1531810483566" lon="34.7278806547975">
        <ele>430.58557570399785</ele>
      </trkpt>
      <trkpt lat="37.153065392619155" lon="34.72798706837412">
        <ele>432.3775459324124</ele>
      </trkpt>
      <trkpt lat="37.15295744710433" lon="34.72799190535571">
        <ele>434.65391088451724</ele>
      </trkpt>
      <trkpt lat="37.1528186597879" lon="34.728006416297376">
        <ele>437.5882387498275</ele>
      </trkpt>
      <trkpt lat="37.15275312124457" lon="34.7279290246052">
        <ele>439.40043318804965</ele>
      </trkpt>
      <trkpt lat="37.15263746485259" lon="34.727706523489786">
        <ele>443.1662111718578</ele>
      </trkpt>
      <trkpt lat="37.15261818877006" lon="34.72763396877815">
        <ele>443.95792266149175</ele>
      </trkpt>
      <trkpt lat="37.152568070932205" lon="34.72772103443248">
        <ele>444.696781226528</ele>
      </trkpt>
      <trkpt lat="37.15258734702748" lon="34.72786130687422">
        <ele>443.51988445319546</ele>
      </trkpt>
      <trkpt lat="37.15260662311786" lon="34.72806446006726">
        <ele>441.9391271573031</ele>
      </trkpt>
      <trkpt lat="37.15260662311786" lon="34.72823859137495">
        <ele>439.8355888149244</ele>
      </trkpt>
      <trkpt lat="37.152591202246555" lon="34.72842239664382">
        <ele>437.5570420794193</ele>
      </trkpt>
      <trkpt lat="37.15254493961146" lon="34.728528810221434">
        <ele>437.0825914965484</ele>
      </trkpt>
      <trkpt lat="37.1524254276745" lon="34.728707778509744">
        <ele>437.3443322621289</ele>
      </trkpt>
      <trkpt lat="37.15210929916317" lon="34.72896897377939">
        <ele>440.88671349908833</ele>
      </trkpt>
      <trkpt lat="37.151701416961565" lon="34.72920645134551">
        <ele>444.81286548503545</ele>
      </trkpt>
      <trkpt lat="37.15151944469274" lon="34.72931239941417">
        <ele>445.015039202335</ele>
      </trkpt>
      <trkpt lat="37.15121487751088" lon="34.729370443184024">
        <ele>447.56753414130696</ele>
      </trkpt>
      <trkpt lat="37.15082717682273" lon="34.72953471170837">
        <ele>448.271705420712</ele>
      </trkpt>
      <trkpt lat="37.15043007902452" lon="34.72962177736173">
        <ele>451.80179889513136</ele>
      </trkpt>
      <trkpt lat="37.150206469637354" lon="34.729786234708286">
        <ele>449.20824768538716</ele>
      </trkpt>
      <trkpt lat="37.15003176643894" lon="34.72999517317129">
        <ele>445.45966254296997</ele>
      </trkpt>
      <trkpt lat="37.15003176643894" lon="34.729990336190724">
        <ele>445.6098694328154</ele>
      </trkpt>
      <trkpt lat="37.14994116568606" lon="34.730050798452">
        <ele>445.64910362768035</ele>
      </trkpt>
      <trkpt lat="37.149729120947256" lon="34.730290228999934">
        <ele>443.08949605920435</ele>
      </trkpt>
      <trkpt lat="37.149538280174255" lon="34.730343435789194">
        <ele>446.9771616284315</ele>
      </trkpt>
      <trkpt lat="37.14939563120046" lon="34.73037003918287">
        <ele>453.42370288169485</ele>
      </trkpt>
      <trkpt lat="37.1492549096521" lon="34.73033134333724">
        <ele>461.55195901208583</ele>
      </trkpt>
      <trkpt lat="37.149125754028276" lon="34.73031683239455">
        <ele>468.3938420341808</ele>
      </trkpt>
      <trkpt lat="37.149050573787676" lon="34.730401479558054">
        <ele>470.11520537955056</ele>
      </trkpt>
      <trkpt lat="37.149006236687356" lon="34.73051998558668">
        <ele>469.54792951232207</ele>
      </trkpt>
      <trkpt lat="37.148973465770624" lon="34.73056835539444">
        <ele>470.13771809525855</ele>
      </trkpt>
      <trkpt lat="37.1490004535852" lon="34.73073039425017">
        <ele>464.8839155297497</ele>
      </trkpt>
      <trkpt lat="37.1490428629898" lon="34.730938384423865">
        <ele>457.6478254305208</ele>
      </trkpt>
      <trkpt lat="37.149012019789" lon="34.731064145923796">
        <ele>456.64343249539627</ele>
      </trkpt>
      <trkpt lat="37.14902166245328" lon="34.731165709857976">
        <ele>454.1321392488559</ele>
      </trkpt>
      <trkpt lat="37.14892720508578" lon="34.73123826456964">
        <ele>457.2148636494674</ele>
      </trkpt>
      <trkpt lat="37.14856094070717" lon="34.73144383625254">
        <ele>473.63202822012903</ele>
      </trkpt>
      <trkpt lat="37.14840479587981" lon="34.731516390964146">
        <ele>481.36487618382193</ele>
      </trkpt>
      <trkpt lat="37.148161903286265" lon="34.73162038605099">
        <ele>493.04965257948027</ele>
      </trkpt>
      <trkpt lat="37.14797876946547" lon="34.73171712566645">
        <ele>498.42711792012193</ele>
      </trkpt>
      <trkpt lat="37.147907443541726" lon="34.73177758792619">
        <ele>498.6288016559838</ele>
      </trkpt>
      <trkpt lat="37.147870816690116" lon="34.73194930074308">
        <ele>493.92384521477</ele>
      </trkpt>
      <trkpt lat="37.147839973011244" lon="34.73201459998333">
        <ele>492.9215342654278</ele>
      </trkpt>
      <trkpt lat="37.14779370747017" lon="34.732258867512854">
        <ele>487.67020222906945</ele>
      </trkpt>
      <trkpt lat="37.14770117630235" lon="34.73250797202198">
        <ele>483.49196411525475</ele>
      </trkpt>
      <trkpt lat="37.14767611575809" lon="34.732752239551445">
        <ele>477.12442910433856</ele>
      </trkpt>
      <trkpt lat="37.14761057646098" lon="34.73298199187295">
        <ele>472.57479922096553</ele>
      </trkpt>
      <trkpt lat="37.147543105665676" lon="34.73315854167143">
        <ele>470.52745316577216</ele>
      </trkpt>
      <trkpt lat="37.14750069542082" lon="34.733202074498536">
        <ele>470.65763945561054</ele>
      </trkpt>
      <trkpt lat="37.147406236153586" lon="34.73326495524802">
        <ele>471.59644921452366</ele>
      </trkpt>
      <trkpt lat="37.147338765176" lon="34.73329155864266">
        <ele>472.64053631433666</ele>
      </trkpt>
      <trkpt lat="37.147263583158136" lon="34.733310906565976">
        <ele>473.9492911032404</ele>
      </trkpt>
      <trkpt lat="37.14717297908935" lon="34.73333267297909">
        <ele>475.4356818411035</ele>
      </trkpt>
      <trkpt lat="37.14710743565293" lon="34.73334718392178">
        <ele>476.6043646791255</ele>
      </trkpt>
      <trkpt lat="37.14704960316162" lon="34.733414901651884">
        <ele>476.21551581420954</ele>
      </trkpt>
      <trkpt lat="37.14693586580387" lon="34.73350438580792">
        <ele>476.5198319521742</ele>
      </trkpt>
      <trkpt lat="37.14686261114187" lon="34.733632565798615">
        <ele>474.9897961112681</ele>
      </trkpt>
      <trkpt lat="37.14681634500211" lon="34.73377283824124">
        <ele>472.57217045333283</ele>
      </trkpt>
      <trkpt lat="37.146725740394416" lon="34.73393729558822">
        <ele>470.8082059274783</ele>
      </trkpt>
      <trkpt lat="37.14662164135376" lon="34.73403887218504">
        <ele>471.59891453047914</ele>
      </trkpt>
      <trkpt lat="37.14656766401711" lon="34.73407756803064">
        <ele>472.20531626860634</ele>
      </trkpt>
      <trkpt lat="37.14630139171298" lon="34.734086500339856">
        <ele>479.1812952179314</ele>
      </trkpt>
      <trkpt lat="37.14619343654252" lon="34.73404296751269">
        <ele>482.84209617400387</ele>
      </trkpt>
      <trkpt lat="37.145971742405834" lon="34.734113103734785">
        <ele>488.04033863684265</ele>
      </trkpt>
      <trkpt lat="37.145871497887654" lon="34.73417598448526">
        <ele>489.87999671917606</ele>
      </trkpt>
      <trkpt lat="37.14556031987172" lon="34.73431160030103">
        <ele>497.5354987819221</ele>
      </trkpt>
      <trkpt lat="37.14536368519785" lon="34.73441075840722">
        <ele>502.416000833827</ele>
      </trkpt>
      <trkpt lat="37.14506479735232" lon="34.73467028474295">
        <ele>507.7004560300155</ele>
      </trkpt>
      <trkpt lat="37.144956840416825" lon="34.73478153530016">
        <ele>509.0980578335476</ele>
      </trkpt>
      <trkpt lat="37.14480454376441" lon="34.7350064549064">
        <ele>509.77175755070783</ele>
      </trkpt>
      <trkpt lat="37.14468887521569" lon="34.73513947187766">
        <ele>510.8245137163904</ele>
      </trkpt>
      <trkpt lat="37.14446718630248" lon="34.735337799715126">
        <ele>513.3678259113129</ele>
      </trkpt>
      <trkpt lat="37.144284043535094" lon="34.73540793593597">
        <ele>516.9341568979274</ele>
      </trkpt>
      <trkpt lat="37.14405463249511" lon="34.73539584348404">
        <ele>523.2864188930971</ele>
      </trkpt>
      <trkpt lat="37.143817510638286" lon="34.735446632410486">
        <ele>528.3451216978657</ele>
      </trkpt>
      <trkpt lat="37.14360352089125" lon="34.735514350140534">
        <ele>532.2566462019004</ele>
      </trkpt>
      <trkpt lat="37.143264817785905" lon="34.73573640885766">
        <ele>534.6889118320779</ele>
      </trkpt>
      <trkpt lat="37.14307010499729" lon="34.73585249639646">
        <ele>536.2529667037255</ele>
      </trkpt>
      <trkpt lat="37.14287924741943" lon="34.73597100242944">
        <ele>538.6351279828245</ele>
      </trkpt>
      <trkpt lat="37.14279827739307" lon="34.73605081261147">
        <ele>539.0014057453734</ele>
      </trkpt>
      <trkpt lat="37.14255034042091" lon="34.736144749619484">
        <ele>542.2393702883554</ele>
      </trkpt>
      <trkpt lat="37.142434668424926" lon="34.736229396783074">
        <ele>542.5557955878506</ele>
      </trkpt>
      <trkpt lat="37.14230935689635" lon="34.73634790281258">
        <ele>542.3908352720754</ele>
      </trkpt>
      <trkpt lat="37.14235948153224" lon="34.73652928959163">
        <ele>538.0038482029266</ele>
      </trkpt>
      <trkpt lat="37.142371048751585" lon="34.73662602920709">
        <ele>535.9389409667818</ele>
      </trkpt>
      <trkpt lat="37.1423614094025" lon="34.73683401937987">
        <ele>532.348183570058</ele>
      </trkpt>
      <trkpt lat="37.14231321263864" lon="34.73684611183174">
        <ele>533.0667086802895</ele>
      </trkpt>
      <trkpt lat="37.14225923222648" lon="34.73689206314873">
        <ele>533.6071834208917</ele>
      </trkpt>
      <trkpt lat="37.14221874689265" lon="34.73692350352397">
        <ele>534.2073632100607</ele>
      </trkpt>
      <trkpt lat="37.14221103539751" lon="34.73711698275494">
        <ele>533.5750143195864</ele>
      </trkpt>
      <trkpt lat="37.14229586179563" lon="34.73717260803406">
        <ele>531.9422861000298</ele>
      </trkpt>
      <trkpt lat="37.142676132648525" lon="34.737473656603406">
        <ele>524.6623325163973</ele>
      </trkpt>
      <trkpt lat="37.142693002305364" lon="34.73748701178437">
        <ele>524.3255308107481</ele>
      </trkpt>
      <trkpt lat="37.14291856176314" lon="34.737479756313036">
        <ele>520.4863225649117</ele>
      </trkpt>
      <trkpt lat="37.143078573620556" lon="34.73743622348587">
        <ele>517.8347029895525</ele>
      </trkpt>
      <trkpt lat="37.14330220408233" lon="34.737424131033976">
        <ele>514.0067303547718</ele>
      </trkpt>
      <trkpt lat="37.14335589794213" lon="34.73747092789648">
        <ele>512.9493508727758</ele>
      </trkpt>
      <trkpt lat="37.14377759248729" lon="34.737666760667956">
        <ele>504.9686394833968</ele>
      </trkpt>
      <trkpt lat="37.144105825771334" lon="34.737819190511885">
        <ele>498.49330310262746</ele>
      </trkpt>
      <trkpt lat="37.14430246371458" lon="34.73793285955992">
        <ele>494.76644508524345</ele>
      </trkpt>
      <trkpt lat="37.14472962944163" lon="34.7381090458428">
        <ele>486.8742338523925</ele>
      </trkpt>
      <trkpt lat="37.14495002240959" lon="34.73819994784017">
        <ele>482.6842257617396</ele>
      </trkpt>
      <trkpt lat="37.14509460756864" lon="34.73820478482074">
        <ele>481.0847434430826</ele>
      </trkpt>
      <trkpt lat="37.145412693945715" lon="34.7382144587819">
        <ele>478.038159642615</ele>
      </trkpt>
      <trkpt lat="37.14586141162525" lon="34.73817795021115">
        <ele>474.55706685809474</ele>
      </trkpt>
      <trkpt lat="37.14599479053879" lon="34.738167098235124">
        <ele>473.8512271570513</ele>
      </trkpt>
      <trkpt lat="37.14628588435639" lon="34.738147750312834">
        <ele>472.31559961144995</ele>
      </trkpt>
      <trkpt lat="37.14639383939405" lon="34.73818160917784">
        <ele>471.5558062207231</ele>
      </trkpt>
      <trkpt lat="37.146459383449624" lon="34.738370251428194">
        <ele>470.5647044728515</ele>
      </trkpt>
      <trkpt lat="37.146526855211775" lon="34.73848875745682">
        <ele>469.68564201940416</ele>
      </trkpt>
      <trkpt lat="37.146561547423474" lon="34.73886119661785">
        <ele>467.27453073675383</ele>
      </trkpt>
      <trkpt lat="37.146540342028445" lon="34.73908611622403">
        <ele>464.60894346681926</ele>
      </trkpt>
      <trkpt lat="37.146561547423474" lon="34.73924089960846">
        <ele>462.5012402712374</ele>
      </trkpt>
      <trkpt lat="37.14648058133899" lon="34.73953353694566">
        <ele>459.30855733361176</ele>
      </trkpt>
      <trkpt lat="37.146364915353445" lon="34.739833429753304">
        <ele>454.78507767205554</ele>
      </trkpt>
      <trkpt lat="37.14621454930759" lon="34.7400317459649">
        <ele>451.0243139594968</ele>
      </trkpt>
      <trkpt lat="37.14608153294138" lon="34.74011155614784">
        <ele>449.80016782991675</ele>
      </trkpt>
      <trkpt lat="37.14590996076113" lon="34.74000756106102">
        <ele>452.08274473506106</ele>
      </trkpt>
      <trkpt lat="37.14577501607599" lon="34.739932587859585">
        <ele>453.5858558203802</ele>
      </trkpt>
      <trkpt lat="37.14565163786702" lon="34.73985761465721">
        <ele>456.1473373320982</ele>
      </trkpt>
      <trkpt lat="37.14551283714201" lon="34.73980198937812">
        <ele>458.9641642088074</ele>
      </trkpt>
      <trkpt lat="37.14539716967646" lon="34.73989631050375">
        <ele>459.437253148735</ele>
      </trkpt>
      <trkpt lat="37.145318130140396" lon="34.74005351237895">
        <ele>458.70992344301305</ele>
      </trkpt>
      <trkpt lat="37.145318130140396" lon="34.74026875802301">
        <ele>456.09133699381175</ele>
      </trkpt>
      <trkpt lat="37.14530656337172" lon="34.74052511800349">
        <ele>453.266875992902</ele>
      </trkpt>
      <trkpt lat="37.145289213216145" lon="34.740754874590294">
        <ele>451.03446315928574</ele>
      </trkpt>
      <trkpt lat="37.145215563952334" lon="34.74093049292816">
        <ele>451.2277891599056</ele>
      </trkpt>
      <trkpt lat="37.145146163221156" lon="34.7412013638523">
        <ele>450.52301834472536</ele>
      </trkpt>
      <trkpt lat="37.145111462832475" lon="34.7413948430833">
        <ele>449.6818913218343</ele>
      </trkpt>
      <trkpt lat="37.145146163221156" lon="34.741527860053594">
        <ele>447.679853182147</ele>
      </trkpt>
      <trkpt lat="37.145261831070584" lon="34.741643947592394">
        <ele>443.7270558789088</ele>
      </trkpt>
      <trkpt lat="37.145419910178546" lon="34.741704409852105">
        <ele>439.2708251129553</ele>
      </trkpt>
      <trkpt lat="37.14572642848381" lon="34.74172375777536">
        <ele>431.43355335604605</ele>
      </trkpt>
      <trkpt lat="37.14617605247736" lon="34.741730905002186">
        <ele>425.698134064649</ele>
      </trkpt>
      <trkpt lat="37.14620389535851" lon="34.74173134759286">
        <ele>425.35009691916844</ele>
      </trkpt>
      <trkpt lat="37.14632148935888" lon="34.74177246192923">
        <ele>423.7272420890192</ele>
      </trkpt>
      <trkpt lat="37.14659716164529" lon="34.741929648556834">
        <ele>420.0109337297739</ele>
      </trkpt>
      <trkpt lat="37.14690367517868" lon="34.74206750250872">
        <ele>417.7512388224256</ele>
      </trkpt>
      <trkpt lat="37.14716006604857" lon="34.742181171557746">
        <ele>416.00427737874054</ele>
      </trkpt>
      <trkpt lat="37.14734320185187" lon="34.74224405230723">
        <ele>415.51021820199736</ele>
      </trkpt>
      <trkpt lat="37.14750127763692" lon="34.7422633920834">
        <ele>416.2583231616305</ele>
      </trkpt>
      <trkpt lat="37.147591881312465" lon="34.74220776680431">
        <ele>416.88421194115796</ele>
      </trkpt>
      <trkpt lat="37.147657424329054" lon="34.74211344567959">
        <ele>417.39243576871365</ele>
      </trkpt>
      <trkpt lat="37.14778658245223" lon="34.74192885702067">
        <ele>418.3889253329962</ele>
      </trkpt>
      <trkpt lat="37.14785019757046" lon="34.74183211740521">
        <ele>418.89330178327026</ele>
      </trkpt>
      <trkpt lat="37.14793887310067" lon="34.74175472571298">
        <ele>419.4404900135949</ele>
      </trkpt>
      <trkpt lat="37.14802754852616" lon="34.741694263453354">
        <ele>419.93285834574186</ele>
      </trkpt>
      <trkpt lat="37.14810465750763" lon="34.74174021477029">
        <ele>420.5627123175192</ele>
      </trkpt>
      <trkpt lat="37.14824538119636" lon="34.74188532419356">
        <ele>422.51169898314447</ele>
      </trkpt>
      <trkpt lat="37.14830321277327" lon="34.741960297395934">
        <ele>423.3083909831019</ele>
      </trkpt>
      <trkpt lat="37.14844008066201" lon="34.7420546185206">
        <ele>425.3710066326139</ele>
      </trkpt>
      <trkpt lat="37.148519933283524" lon="34.742089974249836">
        <ele>426.61049131357595</ele>
      </trkpt>
      <trkpt lat="37.14858328514299" lon="34.74213144242748">
        <ele>427.6291099878266</ele>
      </trkpt>
      <trkpt lat="37.14864112809845" lon="34.74220746742003">
        <ele>428.56094429905494</ele>
      </trkpt>
      <trkpt lat="37.14869070773962" lon="34.742247207758055">
        <ele>429.40811975437805</ele>
      </trkpt>
      <trkpt lat="37.14878435808349" lon="34.74231804922894">
        <ele>430.9765364209495</ele>
      </trkpt>
      <trkpt lat="37.148818788327944" lon="34.7424009855842">
        <ele>431.63900277745057</ele>
      </trkpt>
      <trkpt lat="37.14886561343562" lon="34.74245109296555">
        <ele>432.21480698196734</ele>
      </trkpt>
      <trkpt lat="37.148902798058884" lon="34.742513295232754">
        <ele>432.6432605589669</ele>
      </trkpt>
      <trkpt lat="37.14891106130575" lon="34.742580681021565">
        <ele>432.74704052060423</ele>
      </trkpt>
      <trkpt lat="37.14894273707827" lon="34.74261869351855">
        <ele>433.0297673479171</ele>
      </trkpt>
      <trkpt lat="37.14896477239061" lon="34.74266016169622">
        <ele>433.26537404689776</ele>
      </trkpt>
    </trkseg>
  </trk>
</gpx>
