<?xml version="1.0" encoding="UTF-8"?>
<kml xmlns="http://www.opengis.net/kml/2.2"  xmlns:gx="http://www.google.com/kml/ext/2.2" xmlns:kml="http://www.opengis.net/kml/2.2"    
     xmlns:atom="http://www.w3.org/2005/Atom">
    <Document>
        <name>8K Kadıncık Discovery Run</name>
        
                        <atom:author>             
                <atom:name>
      
      
    </atom:name>         
            </atom:author> 
        
                                
        <description><![CDATA[<br/><p> </p><p><br/>Converted using <b><a href='http://gpx2kml.com' title='Go to gpx2kml.com'>gpx2kml.com</a></b></p><br/>]]></description>
        <visibility>1</visibility>
        <open>1</open>
        
                <Style id="red">
            <LineStyle>
            <color>C81400FF</color>
            <width>4</width>
            </LineStyle>
        </Style>
        <Style id="route_red">
            <LineStyle>
            <color>961400FF</color>
            <width>4</width>
            </LineStyle>
        </Style>
                <Style id="green">
            <LineStyle>
            <color>C878FF00</color>
            <width>4</width>
            </LineStyle>
        </Style>
        <Style id="route_green">
            <LineStyle>
            <color>9678FF00</color>
            <width>4</width>
            </LineStyle>
        </Style>
                <Style id="blue">
            <LineStyle>
            <color>C8FF7800</color>
            <width>4</width>
            </LineStyle>
        </Style>
        <Style id="route_blue">
            <LineStyle>
            <color>96FF7800</color>
            <width>4</width>
            </LineStyle>
        </Style>
                <Style id="cyan">
            <LineStyle>
            <color>C8F0FF14</color>
            <width>4</width>
            </LineStyle>
        </Style>
        <Style id="route_cyan">
            <LineStyle>
            <color>96F0FF14</color>
            <width>4</width>
            </LineStyle>
        </Style>
                <Style id="orange">
            <LineStyle>
            <color>C81478FF</color>
            <width>4</width>
            </LineStyle>
        </Style>
        <Style id="route_orange">
            <LineStyle>
            <color>961478FF</color>
            <width>4</width>
            </LineStyle>
        </Style>
                <Style id="dark_green">
            <LineStyle>
            <color>C8008C14</color>
            <width>4</width>
            </LineStyle>
        </Style>
        <Style id="route_dark_green">
            <LineStyle>
            <color>96008C14</color>
            <width>4</width>
            </LineStyle>
        </Style>
                <Style id="purple">
            <LineStyle>
            <color>C8FF7878</color>
            <width>4</width>
            </LineStyle>
        </Style>
        <Style id="route_purple">
            <LineStyle>
            <color>96FF7878</color>
            <width>4</width>
            </LineStyle>
        </Style>
                <Style id="pink">
            <LineStyle>
            <color>C8A078F0</color>
            <width>4</width>
            </LineStyle>
        </Style>
        <Style id="route_pink">
            <LineStyle>
            <color>96A078F0</color>
            <width>4</width>
            </LineStyle>
        </Style>
                <Style id="brown">
            <LineStyle>
            <color>C8143C96</color>
            <width>4</width>
            </LineStyle>
        </Style>
        <Style id="route_brown">
            <LineStyle>
            <color>96143C96</color>
            <width>4</width>
            </LineStyle>
        </Style>
                <Style id="dark_blue">
            <LineStyle>
            <color>C8F01414</color>
            <width>4</width>
            </LineStyle>
        </Style>
        <Style id="route_dark_blue">
            <LineStyle>
            <color>96F01414</color>
            <width>4</width>
            </LineStyle>
        </Style>
        
                
                
        <Folder>
            <name>Tracks</name>
            <description>A list of tracks</description>
            <visibility>1</visibility>            
            <open>0</open>
                                                            
                <Placemark>
                    <visibility>0</visibility>            
                    <open>0</open> 
                    <styleUrl>#red</styleUrl>
                    <name>8K Kadıncık Discovery Run</name>
                    <description>Track no. 1</description>
                    <LineString>
                        <extrude>true</extrude>
                        <tessellate>true</tessellate>
                        <altitudeMode>clampToGround</altitudeMode> 
                        <coordinates>
                            34.74305858047629,37.14895325916598,433.43304935815223 34.74292366307262,37.1489369654703,433.21644639658024 34.74261294420529,37.14888808436221,432.56036219792287 34.742506645644426,37.14887830813656,432.40942240404013 34.74244123114519,37.148829426990545,431.83305845414384 34.742334932585976,37.14874795834365,430.3768531103387 34.74227769490034,37.148679524612575,429.2540283923539 34.7421959267771,37.148594797050194,427.81420715074114 34.742134600684665,37.14853939820823,426.9234628697162 34.742089628216206,37.14838623649173,424.5198502591809 34.74204874415463,37.148278697229514,422.83172505907817 34.74192200356296,37.148203745531504,421.8537039802653 34.74181570500369,37.14809620600978,420.3123217927765 34.74174620209928,37.14804080680193,419.9150193821961 34.74180343978125,37.147923490697764,419.2815213458624 34.7418525006548,37.14789416164358,419.0385910868656 34.742003771682505,37.147786621680936,418.2715316159243 34.74221228039741,37.147636717236,417.0713323172656 34.74231449055145,37.14752591810786,416.2498577980333 34.74228996161111,37.14733690846212,415.37446647055805 34.7422490775495,37.14723262652062,415.4705076657242 34.74213869058343,37.146988215156185,417.03637512467344 34.742093718115,37.1468122384846,418.07063326593567 34.74199559636776,37.14663626140418,419.45768950252614 34.74187703258974,37.146404883508126,422.13491283260583 34.74179935287168,37.146264752888584,424.28912688919814 34.74177891084088,37.14614417517136,425.8281274158394 34.74176867285689,37.14592772396209,428.5281144379662 34.74176867285689,37.1457321915601,431.12680556461225 34.74179320329455,37.14561161299386,433.93254275701526 34.74177276126372,37.145422597556546,438.8251672746788 34.74170325835928,37.1452661706311,443.1356096986283 34.74160104820521,37.1451488502245,446.9309238888801 34.74152336848721,37.14508367214219,449.2801653243715 34.74135983224235,37.14506085979971,451.26559196198485 34.741175853965075,37.14510648447717,451.7140874724291 34.74106137859215,37.14512929680522,452.1467219032177 34.740881488720106,37.145187957046716,452.31183605464247 34.74076292494206,37.14522706384871,452.4417607951918 34.74062391913321,37.145246617242776,453.43005537570025 34.74054623941515,37.145272688425905,453.76348908515683 34.74035817273267,37.145272688425905,455.91908032223614 34.74011286836296,37.1452629117335,458.91138006998233 34.739875740805246,37.14533786634534,460.56863672803564 34.73974491180837,37.14546496312687,460.45563603051005 34.73974491180837,37.1455822830431,458.80872078242345 34.739830768336844,37.145755003700145,455.2848445790221 34.73999430458332,37.14595379491105,452.1909061932008 34.74008833792536,37.14599616018319,450.4613255458748 34.74023143214103,37.14606459634241,447.6161104072184 34.74042767563708,37.14615258559951,443.6043720741759 34.74054623941515,37.14619820961839,441.1507983671725 34.74064027275719,37.14624709246439,439.01396335852434 34.74066071478802,37.14635137576542,438.0061493155549 34.74062800753839,37.14640025851314,438.3961041845387 34.74051762057235,37.14648172968904,440.2830655123642 34.740349995920695,37.14654364772423,443.35449745846057 34.740272316202635,37.14658275382526,444.6779598293733 34.74011286836296,37.146631636423365,447.5603591374832 34.73999839299012,37.146726142690284,448.9941240073421 34.73990856555696,37.14675560663852,450.5764759378518 34.739745029310484,37.146820783280035,453.1488250700526 34.739561051033235,37.14687944220901,454.96205197197077 34.739438398848336,37.14695113639456,455.6780688632688 34.73931165825829,37.14702934815561,456.3625897204358 34.739246243759055,37.147172736173346,455.54780494056183 34.739164475635874,37.147257465328934,455.4766407510273 34.73907044229381,37.147338935581445,454.9385007156992 34.7390009393894,37.14738455888467,454.4812202193778 34.738939613296935,37.147417146941436,454.24712279662526 34.73887419879935,37.1474399585732,454.3423895420511 34.73874336980083,37.14746928780295,454.80192304936406 34.73876381393319,37.147505134553526,453.68131268697414 34.7388455820564,37.147560534153115,451.29268671090335 34.738919173367606,37.147586604538645,449.7226527498114 34.73895596902247,37.147700662371165,446.1335673014513 34.73894779221047,37.14774628545615,444.9545509907418 34.73891508496084,37.14785382547613,442.26163328247964 34.73888237771121,37.147925518737395,440.57962386801785 34.73872292987156,37.147977659248426,440.57717088907975 34.73855939362511,37.14801024704961,440.6801237262326 34.73842856462824,37.14803305850248,440.89724914315264 34.73826911678697,37.14807542260992,440.8287533884868 34.738072873292424,37.148081940163266,441.91376962065726 34.73783574573477,37.14805586994784,444.02766697695563 34.73762314861466,37.14801676460857,443.9659157137393 34.73744518388821,37.14797148524028,443.8808051982905 34.73728573604697,37.147974744021155,442.7482184261902 34.73708540414563,37.14792260350812,442.6777818516979 34.73689324905638,37.147857427816135,442.9777979573304 34.73682374615032,37.14782158116172,443.31919390856757 34.736582530187405,37.147772699332705,442.4210007188534 34.73650076206417,37.14775966417281,442.0210073785006 34.73640672872213,37.14778899327918,440.49052635633757 34.73633313741249,37.14780202843404,439.5253900102816 34.736210485227645,37.14778573449033,438.8484679947153 34.73622683885165,37.147704264719096,441.0115106678275 34.73620639682082,37.14766515919737,441.7936040681633 34.73612871710441,37.14764560642922,441.6451057221281 34.736087833042774,37.147661900403165,440.88238339969007 34.736042860574344,37.14768797075433,439.8153955817463 34.73591611998273,37.147678194373526,439.0259480758575 34.73587523592107,37.14763257124811,439.87382230130066 34.73580164461143,37.1475543601109,441.93028854758376 34.73567899236028,37.14743704325218,445.3398806604102 34.735646285110676,37.14744681966414,445.2255605338152 34.7355399865514,37.147463113680885,445.2787261443217 34.73532330079382,37.147495701692776,445.38480713344245 34.735184294984975,37.14749244289055,446.02696824253195 34.7350330239573,37.14746963127527,447.1666676622391 34.734979874676895,37.14742726682789,448.2377373892607 34.7348204268356,37.14737838474399,450.0905986387762 34.73473676858464,37.14731115827534,452.11466837999853 34.73452008305932,37.147219911552895,455.3206375684272 34.73450781784052,37.14718406459629,456.0233257198214 34.73441787290528,37.14714169998891,457.4989627809269 34.734291132313615,37.14714169998891,458.6093715493338 34.73421754100244,37.147112370631504,459.8492162013168 34.73418074534757,37.14700808838042,462.20228780762716 34.7341357728792,37.14688425302056,465.08299728410867 34.73413168447394,37.14678648811926,467.13040520921464 34.734111242443134,37.146685464254546,469.3631608434961 34.73407035838159,37.14664309936856,470.7540556535131 34.73398041344467,37.14663984053027,471.96757492087994 34.733914998947085,37.146662652395904,472.5839731849277 34.733804611981014,37.146718052612584,473.9343853359582 34.73366560617055,37.14679626461465,475.63605694966486 34.7335061583309,37.14689402950334,477.4005273458263 34.73341212498883,37.1469983119117,477.4080188407331 34.733285384398755,37.147112370631504,478.0081994583139 34.73325267714918,37.14733071112995,473.7820872259558 34.73320361627552,37.14745454575879,471.8253244263822 34.733023726403445,37.14756534499216,472.8525412015828 34.73277025077749,37.14762075358608,478.21825750586686 34.732345056537355,37.147692447068906,488.51513643437175 34.73220196232171,37.1477511053218,490.6803605387365 34.73198936519992,37.14780324595307,494.897157669413 34.731756326049066,37.14788797440292,500.02120972424126 34.731621409993096,37.148041137014985,499.7376779044988 34.731445608527736,37.14841915432831,482.73031375822706 34.731261630250486,37.14874177105774,467.15647194869047 34.73113080125361,37.14896336559033,457.8635281481688 34.730901850507905,37.14898943549224,461.52882708640044 34.73054615917215,37.14891448449933,473.70376713074126 34.73035400408287,37.14902528159374,472.4997218510388 34.73027223595963,37.14908393881282,471.5643230760716 34.730280412771634,37.14926316892385,462.4634852395591 34.73032528726958,37.1494375505834,452.5292240310717 34.730239430739545,37.149724317215814,444.5470131132321 34.730104513335846,37.14984814792585,446.0366968230045 34.729900093027766,37.14999478929363,449.04269082116 34.729756998812064,37.15016424118646,450.8201651736132 34.729585285753615,37.15039560758099,453.73535952237506 34.72946672197557,37.15079642374454,451.1915440461748 34.72931953935313,37.151125547623295,450.6207011955335 34.72924293592803,37.15140410062172,448.6968365084785 34.72924293592803,37.15152141132474,446.8124873853808 34.728995149216125,37.151925379681224,444.7432633711737 34.72897310112069,37.15196132484071,444.2753842588527 34.728830006905014,37.15217313413872,441.43532783163243 34.72873188515777,37.1523099952165,439.6070834141229 34.72853973006852,37.152469666160556,438.67773117884184 34.72843343150765,37.15253157929247,438.7972556814557 34.72819630394994,37.1525609065481,441.5266184927905 34.72800414886066,37.15254787221362,443.6957997366802 34.72770160680531,37.15250876919717,446.1969342811965 34.72754215896401,37.15255113079728,445.9930350285549 34.72754624737087,37.15260652670095,444.7155661406937 34.72755442418284,37.1526716983,443.16798130404277 34.72777519811655,37.1527401284183,440.5057752740581 34.72790090289584,37.15282514052086,438.0337185068529 34.72793361014544,37.15295874185193,434.975989683241 34.727895288351206,37.15305800813841,433.12568299745254 34.72785184202223,37.1531705483566,431.0279462064475 34.72753703474649,37.153441008108075,427.8721119759612 34.72742664778039,37.1535876425085,427.84468193445446 34.72718008950391,37.15399208953227,429.0193202987342 34.72707504485143,37.15416440172419,430.270127776452 34.72692456790823,37.1545977727887,436.4092350658968 34.72677409096502,37.15503114385321,444.27098002138865 34.72676842503475,37.15504746163707,444.5584544508804 34.72671892116789,37.155495387584466,447.2321863310026 34.72669892213034,37.15567634491991,448.3149164820335 34.726588535164296,37.155849042522206,452.24965429259595 34.72645770616745,37.15591421132639,456.34390332031074 34.726404094218196,37.15636183683794,455.27628612476474 34.72635048226895,37.156809462349486,453.8845099542333 34.72629687031969,37.15725708786103,452.17040263756763 34.72628599265511,37.15734790940816,451.74278044395555 34.726147126616965,37.15778373727511,450.8495142157004 34.726008260578816,37.15821956514206,450.4737904942275 34.72598430673986,37.15829474371472,450.3090476666307 34.72580032846261,37.15829800205074,454.50994197637795 34.725706295120574,37.1583175520651,456.5142446711977 34.72558773134091,37.15834036040795,458.985910517801 34.725546847279304,37.15839575206945,459.3671161623214 34.7255754661237,37.158545635185874,457.26645378307575 34.72558364293573,37.158614059988636,456.379855834752 34.72540375306522,37.15876394267224,458.96139207561566 34.72515844869551,37.15890405012928,462.68436417393445 34.72497447041823,37.158988766140155,464.2417987471502 34.72476187329653,37.15907022375359,466.2822620551104 34.72456562980207,37.15906370714802,470.5084243372088 34.724303971806705,37.159112581678144,474.4131904058629 34.724091374686594,37.15917123107283,476.17578929909564 34.72401778337539,37.15923639701329,475.1392340573489 34.72389402341639,37.159329034765946,474.0167681165983 34.723816631724134,37.15947166499927,470.83835116690136 34.723705381165985,37.15944853579063,472.94038933175636 34.72355543476212,37.15926735674387,480.2594533669308 34.72349739099326,37.15931747014031,479.49868286948316 34.7233424034315,37.1592286454044,484.121498636436 34.72314892420056,37.15917467706586,488.44723460203295 34.72285870535404,37.159143837998556,493.7380909592992 34.722771639699744,37.159147692882556,494.92833107585466 34.72265555216097,37.159170822183256,495.7386812303221 34.722495931796004,37.15945608297858,486.2378726726058 34.72241370312318,37.15963340671399,479.50431875716987 34.72234114841157,37.15991095607339,471.85331730397604 34.722292778603816,37.16009598841403,467.20403242348794 34.72239919218049,37.16013453676125,465.2654235029599 34.722471746892126,37.160176939920376,463.48417434834425 34.72267973706485,37.16021934305567,460.3904976305747 34.72275229177646,37.16021934305567,459.7335939522843 34.72289256421908,37.160203923736304,458.87828752712755 34.72297962987341,37.16011140775544,460.87395234339795 34.72304734760442,37.16003045617896,462.7212756339048 34.723168272123786,37.15999576261939,462.7857249463914 34.72328919664221,37.16006514972179,459.4128865984509 34.723371425315975,37.16011140775544,456.8789996998628 34.72358425247023,37.160165375424455,452.34827847980375 34.72365197020028,37.160200068906164,450.3308225922523 34.72380675358568,37.1602270527146,447.37314408212023 34.7238502864119,37.160281020301014,445.08609778279936 34.72379707962352,37.16032727820259,442.5300458224493 34.7237107328225,37.160357998595615,443.7372615989308 34.72347855774498,37.16037341788281,446.8833044534557 34.72327056757226,37.16043894982137,448.12124227164463 34.7231448060723,37.1604813528097,448.25934326490403 34.7229803487258,37.16062012606015,446.02912764987065 34.722835239302526,37.16069722220038,445.24442795335864 34.722632086110394,37.16080130186468,444.2382647566512 34.72250148762896,37.16095549369696,441.0471379838891 34.722467628763894,37.16105957300644,438.4058194802615 34.722433769898856,37.1611867808557,435.0157237048266 34.72248697668715,37.16122532864668,433.7937601541639 34.72271431478319,37.16115594260923,433.3983941792047 34.72279654345596,37.161071137364814,435.01888937186465 34.723091599283975,37.160990186816036,434.61733065676003 34.72358013441092,37.160809011432534,435.0562042899444 34.724144317382525,37.16081488882397,429.5915762425688 34.724320192509026,37.160816721007876,428.3504329280279 34.72459106343217,37.16083984979794,426.6929149122687 34.72513764226011,37.160762753803155,424.0038399440088 34.7252730777212,37.1605892875274,424.0006969503131 34.72554255354146,37.16048788742346,425.00830480800965 34.72576505465781,37.160198775691455,428.07007319423826 34.725934348984936,37.159952066138985,429.30440852036963 34.726060110484866,37.15975161403517,429.1216703432408 34.726403536119676,37.15956272598896,432.5474976538093 34.72658250440796,37.15937383747075,435.79758543755594 34.72678656104526,37.15911960858237,438.1077932477033 34.72686897466455,37.15867477129035,439.22595277703334 34.72689297466226,37.15854522845403,439.3715741638745 34.726954481737685,37.15809824785386,439.5897735742396 34.72697519566606,37.157947716812146,439.4139692140743 34.72694640512081,37.15749864294817,439.9637832026199 34.72694133680008,37.15741958746813,440.1126803922016 34.726972014499296,37.15697059266185,439.16165599561685 34.72699454223704,37.15664087962911,438.1552482473903 34.726965646983516,37.15619180945167,439.01809245906844 34.726955846391405,37.156039495382686,439.4600130715911 34.726917150544836,37.15567712051477,440.68841434726613 34.727039875965396,37.15523822794879,435.6414721353771 34.72704291002117,37.15522737751114,435.5104936762875 34.72713964963663,37.1547878966619,431.7015033997601 34.7273180602717,37.15436131181222,428.34113035431045 34.72734763980938,37.15429058630512,427.70976115451276 34.72748490766896,37.15385443797415,427.0319959179975 34.72755846295561,37.15362072692474,426.8212883919484 34.72760199578275,37.15352049254474,426.5476974548317 34.72776161779595,37.15334315439597,428.09421015298017 34.7278806547975,37.1531810483566,430.58557570399785 34.72798706837412,37.153065392619155,432.3775459324124 34.72799190535571,37.15295744710433,434.65391088451724 34.728006416297376,37.1528186597879,437.5882387498275 34.7279290246052,37.15275312124457,439.40043318804965 34.727706523489786,37.15263746485259,443.1662111718578 34.72763396877815,37.15261818877006,443.95792266149175 34.72772103443248,37.152568070932205,444.696781226528 34.72786130687422,37.15258734702748,443.51988445319546 34.72806446006726,37.15260662311786,441.9391271573031 34.72823859137495,37.15260662311786,439.8355888149244 34.72842239664382,37.152591202246555,437.5570420794193 34.728528810221434,37.15254493961146,437.0825914965484 34.728707778509744,37.1524254276745,437.3443322621289 34.72896897377939,37.15210929916317,440.88671349908833 34.72920645134551,37.151701416961565,444.81286548503545 34.72931239941417,37.15151944469274,445.015039202335 34.729370443184024,37.15121487751088,447.56753414130696 34.72953471170837,37.15082717682273,448.271705420712 34.72962177736173,37.15043007902452,451.80179889513136 34.729786234708286,37.150206469637354,449.20824768538716 34.72999517317129,37.15003176643894,445.45966254296997 34.729990336190724,37.15003176643894,445.6098694328154 34.730050798452,37.14994116568606,445.64910362768035 34.730290228999934,37.149729120947256,443.08949605920435 34.730343435789194,37.149538280174255,446.9771616284315 34.73037003918287,37.14939563120046,453.42370288169485 34.73033134333724,37.1492549096521,461.55195901208583 34.73031683239455,37.149125754028276,468.3938420341808 34.730401479558054,37.149050573787676,470.11520537955056 34.73051998558668,37.149006236687356,469.54792951232207 34.73056835539444,37.148973465770624,470.13771809525855 34.73073039425017,37.1490004535852,464.8839155297497 34.730938384423865,37.1490428629898,457.6478254305208 34.731064145923796,37.149012019789,456.64343249539627 34.731165709857976,37.14902166245328,454.1321392488559 34.73123826456964,37.14892720508578,457.2148636494674 34.73144383625254,37.14856094070717,473.63202822012903 34.731516390964146,37.14840479587981,481.36487618382193 34.73162038605099,37.148161903286265,493.04965257948027 34.73171712566645,37.14797876946547,498.42711792012193 34.73177758792619,37.147907443541726,498.6288016559838 34.73194930074308,37.147870816690116,493.92384521477 34.73201459998333,37.147839973011244,492.9215342654278 34.732258867512854,37.14779370747017,487.67020222906945 34.73250797202198,37.14770117630235,483.49196411525475 34.732752239551445,37.14767611575809,477.12442910433856 34.73298199187295,37.14761057646098,472.57479922096553 34.73315854167143,37.147543105665676,470.52745316577216 34.733202074498536,37.14750069542082,470.65763945561054 34.73326495524802,37.147406236153586,471.59644921452366 34.73329155864266,37.147338765176,472.64053631433666 34.733310906565976,37.147263583158136,473.9492911032404 34.73333267297909,37.14717297908935,475.4356818411035 34.73334718392178,37.14710743565293,476.6043646791255 34.733414901651884,37.14704960316162,476.21551581420954 34.73350438580792,37.14693586580387,476.5198319521742 34.733632565798615,37.14686261114187,474.9897961112681 34.73377283824124,37.14681634500211,472.57217045333283 34.73393729558822,37.146725740394416,470.8082059274783 34.73403887218504,37.14662164135376,471.59891453047914 34.73407756803064,37.14656766401711,472.20531626860634 34.734086500339856,37.14630139171298,479.1812952179314 34.73404296751269,37.14619343654252,482.84209617400387 34.734113103734785,37.145971742405834,488.04033863684265 34.73417598448526,37.145871497887654,489.87999671917606 34.73431160030103,37.14556031987172,497.5354987819221 34.73441075840722,37.14536368519785,502.416000833827 34.73467028474295,37.14506479735232,507.7004560300155 34.73478153530016,37.144956840416825,509.0980578335476 34.7350064549064,37.14480454376441,509.77175755070783 34.73513947187766,37.14468887521569,510.8245137163904 34.735337799715126,37.14446718630248,513.3678259113129 34.73540793593597,37.144284043535094,516.9341568979274 34.73539584348404,37.14405463249511,523.2864188930971 34.735446632410486,37.143817510638286,528.3451216978657 34.735514350140534,37.14360352089125,532.2566462019004 34.73573640885766,37.143264817785905,534.6889118320779 34.73585249639646,37.14307010499729,536.2529667037255 34.73597100242944,37.14287924741943,538.6351279828245 34.73605081261147,37.14279827739307,539.0014057453734 34.736144749619484,37.14255034042091,542.2393702883554 34.736229396783074,37.142434668424926,542.5557955878506 34.73634790281258,37.14230935689635,542.3908352720754 34.73652928959163,37.14235948153224,538.0038482029266 34.73662602920709,37.142371048751585,535.9389409667818 34.73683401937987,37.1423614094025,532.348183570058 34.73684611183174,37.14231321263864,533.0667086802895 34.73689206314873,37.14225923222648,533.6071834208917 34.73692350352397,37.14221874689265,534.2073632100607 34.73711698275494,37.14221103539751,533.5750143195864 34.73717260803406,37.14229586179563,531.9422861000298 34.737473656603406,37.142676132648525,524.6623325163973 34.73748701178437,37.142693002305364,524.3255308107481 34.737479756313036,37.14291856176314,520.4863225649117 34.73743622348587,37.143078573620556,517.8347029895525 34.737424131033976,37.14330220408233,514.0067303547718 34.73747092789648,37.14335589794213,512.9493508727758 34.737666760667956,37.14377759248729,504.9686394833968 34.737819190511885,37.144105825771334,498.49330310262746 34.73793285955992,37.14430246371458,494.76644508524345 34.7381090458428,37.14472962944163,486.8742338523925 34.73819994784017,37.14495002240959,482.6842257617396 34.73820478482074,37.14509460756864,481.0847434430826 34.7382144587819,37.145412693945715,478.038159642615 34.73817795021115,37.14586141162525,474.55706685809474 34.738167098235124,37.14599479053879,473.8512271570513 34.738147750312834,37.14628588435639,472.31559961144995 34.73818160917784,37.14639383939405,471.5558062207231 34.738370251428194,37.146459383449624,470.5647044728515 34.73848875745682,37.146526855211775,469.68564201940416 34.73886119661785,37.146561547423474,467.27453073675383 34.73908611622403,37.146540342028445,464.60894346681926 34.73924089960846,37.146561547423474,462.5012402712374 34.73953353694566,37.14648058133899,459.30855733361176 34.739833429753304,37.146364915353445,454.78507767205554 34.7400317459649,37.14621454930759,451.0243139594968 34.74011155614784,37.14608153294138,449.80016782991675 34.74000756106102,37.14590996076113,452.08274473506106 34.739932587859585,37.14577501607599,453.5858558203802 34.73985761465721,37.14565163786702,456.1473373320982 34.73980198937812,37.14551283714201,458.9641642088074 34.73989631050375,37.14539716967646,459.437253148735 34.74005351237895,37.145318130140396,458.70992344301305 34.74026875802301,37.145318130140396,456.09133699381175 34.74052511800349,37.14530656337172,453.266875992902 34.740754874590294,37.145289213216145,451.03446315928574 34.74093049292816,37.145215563952334,451.2277891599056 34.7412013638523,37.145146163221156,450.52301834472536 34.7413948430833,37.145111462832475,449.6818913218343 34.741527860053594,37.145146163221156,447.679853182147 34.741643947592394,37.145261831070584,443.7270558789088 34.741704409852105,37.145419910178546,439.2708251129553 34.74172375777536,37.14572642848381,431.43355335604605 34.741730905002186,37.14617605247736,425.698134064649 34.74173134759286,37.14620389535851,425.35009691916844 34.74177246192923,37.14632148935888,423.7272420890192 34.741929648556834,37.14659716164529,420.0109337297739 34.74206750250872,37.14690367517868,417.7512388224256 34.742181171557746,37.14716006604857,416.00427737874054 34.74224405230723,37.14734320185187,415.51021820199736 34.7422633920834,37.14750127763692,416.2583231616305 34.74220776680431,37.147591881312465,416.88421194115796 34.74211344567959,37.147657424329054,417.39243576871365 34.74192885702067,37.14778658245223,418.3889253329962 34.74183211740521,37.14785019757046,418.89330178327026 34.74175472571298,37.14793887310067,419.4404900135949 34.741694263453354,37.14802754852616,419.93285834574186 34.74174021477029,37.14810465750763,420.5627123175192 34.74188532419356,37.14824538119636,422.51169898314447 34.741960297395934,37.14830321277327,423.3083909831019 34.7420546185206,37.14844008066201,425.3710066326139 34.742089974249836,37.148519933283524,426.61049131357595 34.74213144242748,37.14858328514299,427.6291099878266 34.74220746742003,37.14864112809845,428.56094429905494 34.742247207758055,37.14869070773962,429.40811975437805 34.74231804922894,37.14878435808349,430.9765364209495 34.7424009855842,37.148818788327944,431.63900277745057 34.74245109296555,37.14886561343562,432.21480698196734 34.742513295232754,37.148902798058884,432.6432605589669 34.742580681021565,37.14891106130575,432.74704052060423 34.74261869351855,37.14894273707827,433.0297673479171 34.74266016169622,37.14896477239061,433.26537404689776                             
                        </coordinates>
                    </LineString>
                </Placemark>
                                        
        </Folder>
                
        <LookAt>
            <longitude>34.73267567954</longitude>            
            <latitude>37.151718182022</latitude>             
            <altitude>0</altitude>               
            <heading>0</heading>               
            <tilt>45</tilt>
            <range>1301</range>                    
            <altitudeMode>clampToGround</altitudeMode> 
        </LookAt>
    </Document>
</kml>